"Group","Type","GameVersion","ID","Loader","Version","Name","Description","Jar","Url","Category","VersionUrl","LatestVersionUrl","LatestVersion","ApiSource","Host","IconUrl","ClientSide","ServerSide","Title","ProjectDescription","IssuesUrl","SourceUrl","WikiUrl","LatestGameVersion","RecordHash","CurrentDependencies","LatestDependencies","CurrentDependenciesRequired","CurrentDependenciesOptional","LatestDependenciesRequired","LatestDependenciesOptional","UrlDirect","AvailableGameVersions"
"required","mod","1.21.5","fabric-api","fabric","0.127.1+1.21.5","Fabric API","Lightweight and modular API providing common hooks and intercompatibility measures","fabric-api-0.127.1+1.21.5.jar","https://modrinth.com/mod/fabric-api","Core & Utility","https://cdn.modrinth.com/data/P7dR8mSH/versions/vNBWcMLP/fabric-api-0.127.1%2B1.21.5.jar","https://cdn.modrinth.com/data/P7dR8mSH/versions/vNBWcMLP/fabric-api-0.127.1%2B1.21.5.jar","0.127.1+1.21.5","modrinth","modrinth","","","","","","","","","1.21.5","dc0dfd50ed0093b2e6b68c35863b6fd283cdc3c6b9ae4414d6e62f25f29eeea5","","","","","","","",""
"required","mod","1.21.5","cloth-config","fabric","v18.0.145","Cloth Config","Configuration library used by many mods","cloth-config-18.0.145-fabric.jar","https://modrinth.com/mod/cloth-config","Core & Utility","https://cdn.modrinth.com/data/9s6osm5g/versions/qA00xo1O/cloth-config-18.0.145-fabric.jar","https://cdn.modrinth.com/data/9s6osm5g/versions/qA00xo1O/cloth-config-18.0.145-fabric.jar","v18.0.145","modrinth","modrinth","","","","","","","","","1.21.5","9e05a5a283f2a2fd2f9e166f421ec241f8b44de2df894623ecfebafb4e5844df","","","","","","","",""
"required","mod","1.21.5","forge-config-api-port","fabric","v21.5.1","Forge Config API Port","Compatibility layer for config mods","ForgeConfigAPIPort-v21.5.1-1.21.5-Fabric.jar","https://modrinth.com/mod/forge-config-api-port","Core & Utility","https://cdn.modrinth.com/data/ohNO6lps/versions/mlQdrgSO/ForgeConfigAPIPort-v21.5.1-1.21.5-Fabric.jar","https://cdn.modrinth.com/data/ohNO6lps/versions/mlQdrgSO/ForgeConfigAPIPort-v21.5.1-1.21.5-Fabric.jar","v21.5.1","modrinth","modrinth","","","","","","","","","1.21.5","4b921f46f766a2e6b5e8e87f1300542dd4944dd1cb4d9da1cf90cfd87e2ee374","required: P7dR8mSH; optional: 5WeWGLoJ","","P7dR8mSH","5WeWGLoJ","P7dR8mSH","5WeWGLoJ","",""
"required","mod","1.21.5","craterlib","fabric","v2.1.5","CraterLib","Library mod required by some UI mods","CraterLib-Fabric-1.21.5-2.1.5.jar","https://modrinth.com/mod/craterlib","Core & Utility","https://cdn.modrinth.com/data/Nn8Wasaq/versions/o3hiSSue/CraterLib-Fabric-1.21.6-2.1.5.jar","https://cdn.modrinth.com/data/Nn8Wasaq/versions/o3hiSSue/CraterLib-Fabric-1.21.6-2.1.5.jar","v2.1.5","modrinth","modrinth","","","","","","","","","1.21.5","4c1e0e87debd56052f30d33fb7cd4498339dd405ef95c76560e4a03380785beb","required: P7dR8mSH,P7dR8mSH,P7dR8mSH,P7dR8mSH,P7dR8mSH,P7dR8mSH,P7dR8mSH,P7dR8mSH,P7dR8mSH,P7dR8mSH; optional: 9s6osm5g,mOgUt4GM,mOgUt4GM,9s6osm5g,mOgUt4GM,9s6osm5g,mOgUt4GM,9s6osm5g,9s6osm5g,mOgUt4GM,mOgUt4GM,9s6osm5g,mOgUt4GM,9s6osm5g,mOgUt4GM,9s6osm5g,9s6osm5g,mOgUt4GM,mOgUt4GM,9s6osm5g","","P7dR8mSH","9s6osm5g,mOgUt4GM","P7dR8mSH","9s6osm5g,mOgUt4GM","",""
"required","mod","1.21.5","balm","fabric","v21.5.14","Balm","Shared codebase for performance and utility mods","balm-fabric-1.21.5-21.5.14.jar","https://modrinth.com/mod/balm","Core & Utility","https://cdn.modrinth.com/data/MBAkmtvl/versions/FWEgPSgs/balm-fabric-1.21.5-21.5.14.jar","https://cdn.modrinth.com/data/MBAkmtvl/versions/FWEgPSgs/balm-fabric-1.21.5-21.5.14.jar","v21.5.14","modrinth","modrinth","","","","","","","","","1.21.5","19f20a19e070ebd819f0f076f5914f5120ab704b8963051e03e1e12ac0f81e8f","required: P7dR8mSH","","P7dR8mSH","","P7dR8mSH","","",""
"required","mod","1.21.5","fabric-language-kotlin","fabric","v1.13.3+kotlin.2.1.21","Fabric Language Kotlin","Enables Kotlin-based mods","fabric-language-kotlin-1.13.3+kotlin.2.1.21.jar","https://modrinth.com/mod/fabric-language-kotlin","Core & Utility","https://cdn.modrinth.com/data/Ha28R6CL/versions/iqWDz8qt/fabric-language-kotlin-1.13.3%2Bkotlin.2.1.21.jar","https://cdn.modrinth.com/data/Ha28R6CL/versions/iqWDz8qt/fabric-language-kotlin-1.13.3%2Bkotlin.2.1.21.jar","v1.13.3+kotlin.2.1.21","modrinth","modrinth","","","","","","","","","1.21.5","6929577529830e6d76a4c848ba52ba1a27318eabef9c446016b3fef27eeafae6","","","","","","","",""
"required","mod","1.21.5","collective","fabric","v8.3","Collective","Shared code library for various mods","collective-1.21.5-8.3.jar","https://modrinth.com/mod/collective","Core & Utility","https://cdn.modrinth.com/data/e0M1UDsY/versions/7bICOv60/collective-1.21.6-8.3.jar","https://cdn.modrinth.com/data/e0M1UDsY/versions/7bICOv60/collective-1.21.6-8.3.jar","v8.3","modrinth","modrinth","","","","","","","","","1.21.5","ec65e98ae22dc81b50655fe443003f832d3169d80a21c162b2da1c095ae94a8d","","","","","","","",""
"required","mod","1.21.5","architectury-api","fabric","v16.1.4","Architectury API","Intermediary API for multiplatform mods","architectury-16.1.4-fabric.jar","https://modrinth.com/mod/architectury-api","Core & Utility","https://cdn.modrinth.com/data/lhGA9TYQ/versions/ImZUcNzP/architectury-16.1.4-fabric.jar","https://cdn.modrinth.com/data/lhGA9TYQ/versions/ImZUcNzP/architectury-16.1.4-fabric.jar","v16.1.4","modrinth","modrinth","","","","","","","","","1.21.5","f8ee6db0b614587373c12b4bfdb198eb62a8b90b3b1b10a36b1359aba0d822d0","required: P7dR8mSH","","P7dR8mSH","","P7dR8mSH","","",""
"required","mod","1.21.5","jamlib","fabric","v1.3.5+1.21.5","JamLib","Platform-agnostic library for JamCore mods","jamlib-fabric-1.3.5+1.21.5.jar","https://modrinth.com/mod/jamlib","Core & Utility","https://cdn.modrinth.com/data/IYY9Siz8/versions/VCYj0LFy/jamlib-neoforge-1.3.5%2B1.21.5.jar","https://cdn.modrinth.com/data/IYY9Siz8/versions/VCYj0LFy/jamlib-neoforge-1.3.5%2B1.21.5.jar","v1.3.5+1.21.5","modrinth","modrinth","","","","","","","","","1.21.5","d994c3eaa08214c2085b2205bc851350906e5125f9dfd7340d593dac310367f6","required: lhGA9TYQ,P7dR8mSH,lhGA9TYQ","","lhGA9TYQ,P7dR8mSH","","lhGA9TYQ,P7dR8mSH","","",""
"required","mod","1.21.5","libipn","fabric","v6.5.0","libIPN","Inventory Profiles Next GUI Library","libIPN-fabric-1.21.5-6.5.0.jar","https://modrinth.com/mod/libipn","Core & Utility","https://cdn.modrinth.com/data/onSQdWhM/versions/TBgQEvJT/libIPN-fabric-1.21.6-6.5.0.jar","https://cdn.modrinth.com/data/onSQdWhM/versions/TBgQEvJT/libIPN-fabric-1.21.6-6.5.0.jar","v6.5.0","modrinth","modrinth","","","","","","","","","1.21.5","af708a47057f78238df49068c8e4002cbfbe14ff58ae477fecc1cb7b83406489","required: Ha28R6CL,P7dR8mSH,Ha28R6CL,P7dR8mSH,P7dR8mSH,Ha28R6CL,Ha28R6CL,P7dR8mSH","","Ha28R6CL,P7dR8mSH","","Ha28R6CL,P7dR8mSH","","",""
"required","mod","1.21.5","ukulib","fabric","v1.7.1+1.21.5","ukulib","Utility library used in several mods","ukulib-1.7.1+1.21.5.jar","https://modrinth.com/mod/ukulib","Core & Utility","https://cdn.modrinth.com/data/Y8uFrUil/versions/94Pv0WcZ/ukulib-1.7.1%2B1.21.5.jar","https://cdn.modrinth.com/data/Y8uFrUil/versions/94Pv0WcZ/ukulib-1.7.1%2B1.21.5.jar","v1.7.1+1.21.5","modrinth","modrinth","","","","","","","","","1.21.5","e5db7535bab4f2e1d6062fbb66f8f54027b2b1aa31b74db4f3ddba16ee84e6da","","","","","","","",""
"required","mod","1.21.5","placeholder-api","fabric","v2.6.4+1.21.5","Placeholder API","Enables user-friendly placeholders","placeholder-api-2.6.4+1.21.5.jar","https://modrinth.com/mod/placeholder-api","Core & Utility","https://cdn.modrinth.com/data/eXts2L7r/versions/8x0q8gHM/placeholder-api-2.6.4%2B1.21.5.jar","https://cdn.modrinth.com/data/eXts2L7r/versions/8x0q8gHM/placeholder-api-2.6.4%2B1.21.5.jar","v2.6.4+1.21.5","modrinth","modrinth","","","","","","","","","1.21.5","98fca19c9a2cffd74e4d62d1024a7e38077dce948edff470d6f2566b723e1181","","","","","","","",""
"required","mod","1.21.5","modmenu","fabric","v14.0.0-rc.2","Mod Menu","Adds a mod menu to view installed mods","modmenu-14.0.0-rc.2.jar","https://modrinth.com/mod/modmenu","Core & Utility","https://cdn.modrinth.com/data/mOgUt4GM/versions/T7GjZmwP/modmenu-14.0.0-rc.2.jar","https://cdn.modrinth.com/data/mOgUt4GM/versions/T7GjZmwP/modmenu-14.0.0-rc.2.jar","v14.0.0-rc.2","modrinth","modrinth","","","","","","","","","1.21.5","59e615408ca81ec02f6ee58d8e047b56639efc8d844ca5a73f4a4d2d3a83d9ac","required: eXts2L7r,P7dR8mSH","","eXts2L7r,P7dR8mSH","","eXts2L7r,P7dR8mSH","","",""
"required","mod","1.21.5","xaeros-world-map","fabric","v1.39.9","Xaero's World Map","Fullscreen world map with land claim support","XaerosWorldMap_1.39.9_Fabric_1.21.5.jar","https://modrinth.com/mod/xaeros-world-map","World & Exploration","https://cdn.modrinth.com/data/NcUtCpym/versions/NFdP28cA/XaerosWorldMap_1.39.9_Fabric_1.21.5.jar","https://cdn.modrinth.com/data/NcUtCpym/versions/NFdP28cA/XaerosWorldMap_1.39.9_Fabric_1.21.5.jar","v1.39.9","modrinth","modrinth","","","","","","","","","1.21.5","5bf31a8b7a5f9dc0c4d16088fbfbed08a71b24a1fd9480a58c05099b04260043","required: P7dR8mSH,P7dR8mSH,P7dR8mSH,P7dR8mSH,P7dR8mSH,P7dR8mSH,P7dR8mSH,P7dR8mSH,P7dR8mSH,P7dR8mSH,P7dR8mSH,P7dR8mSH; optional: gF3BGWvG,gF3BGWvG,gF3BGWvG,gF3BGWvG,gF3BGWvG,gF3BGWvG,gF3BGWvG,gF3BGWvG,gF3BGWvG,gF3BGWvG,gF3BGWvG","","P7dR8mSH","gF3BGWvG","P7dR8mSH","gF3BGWvG","",""
"required","mod","1.21.5","xaeros-minimap","fabric","v25.2.6","Xaero's Minimap","On-screen minimap with item visibility","Xaeros_Minimap_25.2.6_Fabric_1.21.5.jar","https://modrinth.com/mod/xaeros-minimap","World & Exploration","https://cdn.modrinth.com/data/1bokaNcj/versions/su6YdstF/Xaeros_Minimap_25.2.6_Fabric_1.21.5.jar","https://cdn.modrinth.com/data/1bokaNcj/versions/su6YdstF/Xaeros_Minimap_25.2.6_Fabric_1.21.5.jar","v25.2.6","modrinth","modrinth","","","","","","","","","1.21.5","ca5b57dc70799ae2bf67decefbbc0731baa0b002a6a7a5c4437fa11062e95239","required: P7dR8mSH,P7dR8mSH,P7dR8mSH,P7dR8mSH,P7dR8mSH,P7dR8mSH,P7dR8mSH,P7dR8mSH,P7dR8mSH,P7dR8mSH,P7dR8mSH,P7dR8mSH; optional: gF3BGWvG,gF3BGWvG,gF3BGWvG,gF3BGWvG,gF3BGWvG,gF3BGWvG,gF3BGWvG,gF3BGWvG,gF3BGWvG,gF3BGWvG,gF3BGWvG","","P7dR8mSH","gF3BGWvG","P7dR8mSH","gF3BGWvG","",""
"required","mod","1.21.5","journeymap","fabric","v1.21.5-6.0.0-beta.45","Journeymap","Real-time map and waypoint management","journeymap-fabric-1.21.5-6.0.0-beta.45.jar","https://modrinth.com/mod/journeymap","World & Exploration","https://cdn.modrinth.com/data/lfHFW1mp/versions/VjWa5Hjt/journeymap-fabric-1.21.5-6.0.0-beta.45.jar","https://cdn.modrinth.com/data/lfHFW1mp/versions/VjWa5Hjt/journeymap-fabric-1.21.5-6.0.0-beta.45.jar","v1.21.5-6.0.0-beta.45","modrinth","modrinth","","","","","","","","","1.21.5","a66fd85419a3a5ea75054d7d21a9987b6c72a38a34a5d6f6713a47ab5ccb025b","","","","","","","",""
"required","mod","1.21.5","waystones","fabric","v21.5.4","Waystones","Fast travel points between waystones","waystones-fabric-1.21.5-21.5.4.jar","https://modrinth.com/mod/waystones","World & Exploration","https://cdn.modrinth.com/data/LOpKHB2A/versions/Ilo10X66/waystones-fabric-1.21.5-21.5.4.jar","https://cdn.modrinth.com/data/LOpKHB2A/versions/Ilo10X66/waystones-fabric-1.21.5-21.5.4.jar","v21.5.4","modrinth","modrinth","","","","","","","","","1.21.5","45c427290d8de0833a443c71de0895f4094efa1ad6710cc75fbaa89324d62158","required: MBAkmtvl,P7dR8mSH","","MBAkmtvl,P7dR8mSH","","MBAkmtvl,P7dR8mSH","","",""
"required","mod","1.21.5","malilib","fabric","v0.24.1","MaLiLib","Library for map-related mods like Xaero's","malilib-fabric-1.21.5-0.24.1.jar","https://modrinth.com/mod/malilib","World & Exploration","https://cdn.modrinth.com/data/GcWjdA9I/versions/CcD4izog/malilib-fabric-1.21.5-0.24.1.jar","https://cdn.modrinth.com/data/GcWjdA9I/versions/CcD4izog/malilib-fabric-1.21.5-0.24.1.jar","v0.24.1","modrinth","modrinth","","","","","","","","","1.21.5","773872fd634448315e3346c9a63e2427da0dd332eb6e783fae6be827f28fd944","","","","","","","",""
"required","mod","1.21.5","worldedit","fabric","v7.3.14","WorldEdit","In-game world editor","worldedit-mod-7.3.14.jar","https://modrinth.com/plugin/worldedit","World & Exploration","https://cdn.modrinth.com/data/1u6JkXh5/versions/txgouwkE/worldedit-bukkit-7.3.14.jar","https://cdn.modrinth.com/data/1u6JkXh5/versions/txgouwkE/worldedit-bukkit-7.3.14.jar","v7.3.14","modrinth","modrinth","","","","","","","","","1.21.5","2af1bce77eda5886d1ca979153ba4e68c4af372f0e795277960e9148a50c094a","","","","","","","",""
"required","mod","1.21.5","owo-lib","fabric","v0.12.21+1.21.5","o?o","Miscellaneous mod","owo-lib-0.12.21+1.21.5.jar","https://modrinth.com/mod/owo-lib","World & Exploration","https://cdn.modrinth.com/data/ccKDOlHs/versions/xQbRMeoS/owo-lib-0.12.21%2B1.21.5.jar","https://cdn.modrinth.com/data/ccKDOlHs/versions/xQbRMeoS/owo-lib-0.12.21%2B1.21.5.jar","v0.12.21+1.21.5","modrinth","modrinth","","","","","","","","","1.21.5","dcd2237e43f5a72a20d9abd99557ea55bc7f99495bcb586378a3a945f81f5505","required: P7dR8mSH","","P7dR8mSH","","P7dR8mSH","","",""
"required","mod","1.21.5","toms-storage","fabric","v2.4.0","Tom's Simple Storage Mod","Simple inventory storage mod","toms_storage_fabric-1.21.5-2.4.0.jar","https://modrinth.com/mod/toms-storage","Storage & Inventory","https://cdn.modrinth.com/data/XZNI4Cpy/versions/Wc6TVAIP/toms_storage_fabric-1.21.6-2.4.0.jar","https://cdn.modrinth.com/data/XZNI4Cpy/versions/Wc6TVAIP/toms_storage_fabric-1.21.6-2.4.0.jar","v2.4.0","modrinth","modrinth","","","","","","","","","1.21.5","8186ed781b41ada98cffb96bfdc9bc19d1a8452cfa5f8c3ee61213488d323797","required: 9s6osm5g,9s6osm5g; optional: 5aaWibi9,fRiHVvU7,Orvt0mRa,u6dRKJwZ,nfn13YXA,tagwiZkJ,Orvt0mRa,fRiHVvU7,5aaWibi9,tagwiZkJ,u6dRKJwZ,nfn13YXA","","","5aaWibi9,fRiHVvU7,nfn13YXA,Orvt0mRa,tagwiZkJ,u6dRKJwZ","","5aaWibi9,fRiHVvU7,nfn13YXA,Orvt0mRa,tagwiZkJ,u6dRKJwZ","",""
"required","mod","1.21.5","travelersbackpack","fabric","v10.5.1","Traveler's Backpack","Upgradeable backpacks with accessories integration","travelersbackpack-fabric-1.21.5-10.5.1.jar","https://modrinth.com/mod/travelersbackpack","Storage & Inventory","https://cdn.modrinth.com/data/rlloIFEV/versions/4W3UG4uA/travelersbackpack-fabric-1.21.5-10.5.1.jar","https://cdn.modrinth.com/data/rlloIFEV/versions/4W3UG4uA/travelersbackpack-fabric-1.21.5-10.5.1.jar","v10.5.1","modrinth","modrinth","","","","","","","","","1.21.5","1acb0726528a825600347519c38e727be5fc810ddec816594fb00f163d14a723","required: P7dR8mSH,K01OU20C,9s6osm5g; optional: u6dRKJwZ,tagwiZkJ,SaCpeal4,nfn13YXA,jtmvUHXj,HnD1GX6e,yn9u3ypm,fRiHVvU7,5aaWibi9","","9s6osm5g,K01OU20C,P7dR8mSH","5aaWibi9,fRiHVvU7,HnD1GX6e,jtmvUHXj,nfn13YXA,SaCpeal4,tagwiZkJ,u6dRKJwZ,yn9u3ypm","9s6osm5g,K01OU20C,P7dR8mSH","5aaWibi9,fRiHVvU7,HnD1GX6e,jtmvUHXj,nfn13YXA,nH02ielQ,SaCpeal4,tagwiZkJ,u6dRKJwZ,yn9u3ypm","",""
"required","mod","1.21.5","shulkerboxtooltip","fabric","v5.2.6+1.21.5","Shulker Box Tooltip","Preview Shulker Box contents","shulkerboxtooltip-fabric-5.2.6+1.21.5.jar","https://modrinth.com/mod/shulkerboxtooltip","Storage & Inventory","https://cdn.modrinth.com/data/2M01OLQq/versions/mMHUyoWs/shulkerboxtooltip-fabric-5.2.6%2B1.21.5.jar","https://cdn.modrinth.com/data/2M01OLQq/versions/mMHUyoWs/shulkerboxtooltip-fabric-5.2.6%2B1.21.5.jar","v5.2.6+1.21.5","modrinth","modrinth","","","","","","","","","1.21.5","12a38ac3f3bbe8827f6ae3b8daf14a1bd5c8b1d8e6b3040b0ec88f69d817d87f","required: P7dR8mSH; optional: mOgUt4GM","","P7dR8mSH","mOgUt4GM","P7dR8mSH","mOgUt4GM","",""
"required","mod","1.21.5","inventory-totem","fabric","v3.4","Inventory Totem","Totem effect works from inventory","inventorytotem-1.21.5-3.4.jar","https://modrinth.com/mod/inventory-totem","Storage & Inventory","https://cdn.modrinth.com/data/yQj7xqEM/versions/EKYaWQlO/inventorytotem-1.21.8-3.4.jar","https://cdn.modrinth.com/data/yQj7xqEM/versions/EKYaWQlO/inventorytotem-1.21.8-3.4.jar","v3.4","modrinth","modrinth","","","","","","","","","1.21.5","a8d6ef22a15533c8b71796adeba056a6e0071985b8af888e09c7c7ef2111ec1a","required: e0M1UDsY,e0M1UDsY,e0M1UDsY,e0M1UDsY,e0M1UDsY,e0M1UDsY,e0M1UDsY","","e0M1UDsY","","e0M1UDsY","","",""
"required","mod","1.21.5","appleskin","fabric","v3.0.6+mc1.21.5","AppleSkin","Detailed food/saturation HUD","appleskin-fabric-mc1.21.5-3.0.6.jar","https://modrinth.com/mod/appleskin","Storage & Inventory","https://cdn.modrinth.com/data/EsAfCjCV/versions/VfjnbBAT/appleskin-fabric-mc1.21.5-3.0.6.jar","https://cdn.modrinth.com/data/EsAfCjCV/versions/VfjnbBAT/appleskin-fabric-mc1.21.5-3.0.6.jar","v3.0.6+mc1.21.5","modrinth","modrinth","","","","","","","","","1.21.5","e3d9c1ed7bee589447a0e8c904fe17661145324f2d50e19dc822b79535046459","required: P7dR8mSH","","P7dR8mSH","","P7dR8mSH","","",""
"required","mod","1.21.5","357540","fabric","v3.4.27","Inventory HUD+","Display inventory on screen","inventoryhud.fabric.1.21.5-3.4.27.jar","https://www.curseforge.com/minecraft/mc-mods/inventory-hud-forge","Storage & Inventory","https://www.curseforge.com/api/v1/mods/357540/files/6355978/download","https://www.curseforge.com/api/v1/mods/357540/files/6355978/download","[Fabric][1.21.5]InventoryHud(v3.4.27)","curseforge","curseforge","","","","","","","","","1","d05da238f12e7e4116d31db023e7151f56f3c77cbd59e18fbc20799a7f782bad","","","","","","","",""
"required","mod","1.21.5","inventory-management","fabric","v1.6.0","Inventory Management","Sort/transfer items easily","inventorymanagement-1.6.0+1.21.5.jar","https://modrinth.com/mod/inventory-management","Storage & Inventory","https://cdn.modrinth.com/data/F7wXag4i/versions/sq1lxU3z/inventorymanagement-1.6.0%2B1.21.6.jar","https://cdn.modrinth.com/data/F7wXag4i/versions/sq1lxU3z/inventorymanagement-1.6.0%2B1.21.6.jar","v1.6.0","modrinth","modrinth","","","","","","","","","1.21.5","3ec6bd0bcb8d61702525a48bce7dc13ff4a54ea1057df435801c307b1fafe9d6","","","","","","","",""
"required","mod","1.21.5","itemlocks","fabric","v1.21.5-1.3.11","ItemLocks","Prevent accidental item loss by locking slots","ItemLocks-Mod-Fabric-1.21.5.jar","https://modrinth.com/mod/itemlocks","Storage & Inventory","https://cdn.modrinth.com/data/tJzrFuyy/versions/PqTAuCHp/ItemLocks-NeoForged-1.21.5-1.3.11.jar","https://cdn.modrinth.com/data/tJzrFuyy/versions/PqTAuCHp/ItemLocks-NeoForged-1.21.5-1.3.11.jar","v1.21.5-1.3.11","modrinth","modrinth","","","","","","","","","1.21.5","22082cf88dff91f24770ab8e3c5c9bec60f39ffc14878c50c74746a910c3f728","required: 9s6osm5g,9s6osm5g; optional: mOgUt4GM","","9s6osm5g","mOgUt4GM","9s6osm5g","mOgUt4GM","",""
"required","mod","1.21.5","stack-refill","fabric","v4.7","Stack Refill","Automatically refills depleted items","stackrefill-1.21.5-4.7.jar","https://modrinth.com/mod/stack-refill","Storage & Inventory","https://cdn.modrinth.com/data/mQWkB9ON/versions/7ePmv1dB/stackrefill-1.21.6-4.7.jar","https://cdn.modrinth.com/data/mQWkB9ON/versions/7ePmv1dB/stackrefill-1.21.6-4.7.jar","v4.7","modrinth","modrinth","","","","","","","","","1.21.5","ba7276dffd7f3b3044f753fc6dcc0680f46b18354a20f9b478398733fe40262c","required: e0M1UDsY,e0M1UDsY,e0M1UDsY,e0M1UDsY,e0M1UDsY","","e0M1UDsY","","e0M1UDsY","","",""
"required","mod","1.21.5","craftable-name-tag","fabric","v1.21.5-0.2","CraftableNameTag","Allows Name Tag crafting","CraftableNameTag-1.21.5-0.2.jar","https://modrinth.com/datapack/craftable-name-tag","Storage & Inventory","https://cdn.modrinth.com/data/mi57UBwo/versions/3IcVNVez/craftablenametag-1.21.5-0.2.jar","https://cdn.modrinth.com/data/mi57UBwo/versions/3IcVNVez/craftablenametag-1.21.5-0.2.jar","v1.21.5-0.2","modrinth","modrinth","","","","","","","","","1.21.5","fd2b0155142efa69a4da6979b1e703a78e1d675d806b514502e5041255495579","required: P7dR8mSH","","P7dR8mSH","","P7dR8mSH","","",""
"required","mod","1.21.5","open-parties-and-claims","fabric","v0.24.0","Open Parties and Claims","Land claims, chunk loading, and parties","open-parties-and-claims-fabric-1.21.5-0.24.1.jar","https://modrinth.com/mod/open-parties-and-claims","Multiplayer & Server","https://cdn.modrinth.com/data/gF3BGWvG/versions/s2x9bMPh/open-parties-and-claims-fabric-1.21.4-0.24.0.jar","https://cdn.modrinth.com/data/gF3BGWvG/versions/s2x9bMPh/open-parties-and-claims-fabric-1.21.4-0.24.0.jar","v0.24.0","modrinth","modrinth","","","","","","","","","1.21.5","1c3e4da8e9fbd0eb114479b31e30674de7ea861ddaebf4c623539f12e7dd5e39","required: ohNO6lps,P7dR8mSH,ohNO6lps,P7dR8mSH,ohNO6lps,P7dR8mSH,P7dR8mSH,ohNO6lps,ohNO6lps,P7dR8mSH,P7dR8mSH,ohNO6lps,P7dR8mSH,ohNO6lps,ohNO6lps,P7dR8mSH,P7dR8mSH,ohNO6lps,ohNO6lps,P7dR8mSH,ohNO6lps,P7dR8mSH","","ohNO6lps,P7dR8mSH","","ohNO6lps,P7dR8mSH","","",""
"required","mod","1.21.5","universal-graves","fabric","v3.6.0+1.21.4","Universal Graves","Customisable death graves","graves-3.7.1+1.21.5.jar","https://modrinth.com/mod/universal-graves","Multiplayer & Server","https://cdn.modrinth.com/data/yn9u3ypm/versions/o2f2Idvu/graves-3.6.0%2B1.21.4.jar","https://cdn.modrinth.com/data/yn9u3ypm/versions/o2f2Idvu/graves-3.6.0%2B1.21.4.jar","v3.6.0+1.21.4","modrinth","modrinth","","","","","","","","","1.21.5","5e65485de3556bc4e2fb63c1adc62c31f54de31d23800539e287ce418f1c3f27","required: xGdtZczs","","xGdtZczs","","xGdtZczs","","",""
"required","mod","1.21.5","styled-chat","fabric","v2.8.0+1.21.5","Styled Chat","Custom in-game chat styling","styled-chat-2.8.0+1.21.5.jar","https://modrinth.com/mod/styled-chat","Multiplayer & Server","https://cdn.modrinth.com/data/doqSKB0e/versions/E1RdcKyb/styled-chat-2.8.0%2B1.21.5.jar","https://cdn.modrinth.com/data/doqSKB0e/versions/E1RdcKyb/styled-chat-2.8.0%2B1.21.5.jar","v2.8.0+1.21.5","modrinth","modrinth","","","","","","","","","1.21.5","2558bef848942a4486e87ae2cbb0cd283e1eda7e8d616408b950d33c63b11330","","","","","","","",""
"required","mod","1.21.5","styledplayerlist","fabric","v3.7.0+1.21.5","Styled Player List","Customisable player tab list","styledplayerlist-3.7.0+1.21.5.jar","https://modrinth.com/mod/styledplayerlist","Multiplayer & Server","https://cdn.modrinth.com/data/DQIfKUHf/versions/VQ4VhTvm/styledplayerlist-3.7.0%2B1.21.5.jar","https://cdn.modrinth.com/data/DQIfKUHf/versions/VQ4VhTvm/styledplayerlist-3.7.0%2B1.21.5.jar","v3.7.0+1.21.5","modrinth","modrinth","","","","","","","","","1.21.5","caf3a9cc2cf229f484582957d2021b1236c404c7782b0258b2d1b214912cd170","","","","","","","",""
"required","mod","1.21.5","pets-dont-die","fabric","v1.1.2","Pets Don't Die","Makes tameable mobs immortal (with exceptions)","pets-dont-die-1.1.2.jar","https://modrinth.com/datapack/pets-dont-die","Multiplayer & Server","https://cdn.modrinth.com/data/5H9ypkdW/versions/mntW7qS7/pets-dont-die-1.1.2.jar","https://cdn.modrinth.com/data/5H9ypkdW/versions/9OCPDEvR/pets-dont-die-1.1.3.jar","1.1.3+mod","modrinth","modrinth","https://cdn.modrinth.com/data/5H9ypkdW/f9b9d00abb73c477455c8a8efd4b9a222cc19614_96.webp","optional","required","Pets Don't Die","This data pack makes pets (tameable mobs) unable to die*.","https://github.com/E8zEbo8Luna/PetsDontDie/issues","https://github.com/E8zEbo8Luna/PetsDontDie","","1.21.6","c9a2b0f298d536d058603ff593f60bc004fedf72a4a54be9a7e2af7f46b71a1c","","","","","","","",""
"required","mod","1.21.5","sodium","fabric","mc1.21.5-0.6.13-fabric","Sodium","The fastest and most compatible rendering optimization mod for Minecraft","sodium-fabric-0.6.13+mc1.21.5.jar","https://modrinth.com/mod/sodium","Performance & Protection","https://cdn.modrinth.com/data/AANobbMI/versions/DA250htH/sodium-fabric-0.6.13%2Bmc1.21.5.jar","https://cdn.modrinth.com/data/AANobbMI/versions/DA250htH/sodium-fabric-0.6.13%2Bmc1.21.5.jar","mc1.21.5-0.6.13-fabric","modrinth","modrinth","","","","","","","","","1.21.5","e72e7dab4c711d2cabc83ab24147d85441fe2ce4b143d7aa8f08ccf558c79dfa","","","","","","","",""
"required","mod","1.21.5","ferrite-core","fabric","v8.0.0","FerriteCore","Reduces memory usage","ferritecore-8.0.0-fabric.jar","https://modrinth.com/mod/ferrite-core","Performance & Protection","https://cdn.modrinth.com/data/uXXizFIs/versions/CtMpt7Jr/ferritecore-8.0.0-fabric.jar","https://cdn.modrinth.com/data/uXXizFIs/versions/CtMpt7Jr/ferritecore-8.0.0-fabric.jar","v8.0.0","modrinth","modrinth","","","","","","","","","1.21.5","57f90dcbd413d4c66ac1c963d41630f322d8ca4bc1213e14feaf34245396adb9","","","","","","","",""
"required","mod","1.21.5","blast","fabric","v1.13.3-1.21.5","BLAST","Performance optimisations and anti-crash","blast-1.13.3-1.21.5.jar","https://modrinth.com/mod/blast","Performance & Protection","https://cdn.modrinth.com/data/hrVBD9fd/versions/ugOKAN0o/blast-1.13.3-1.21.5.jar","https://cdn.modrinth.com/data/hrVBD9fd/versions/ugOKAN0o/blast-1.13.3-1.21.5.jar","v1.13.3-1.21.5","modrinth","modrinth","","","","","","","","","1.21.5","8bf12e1d69014c5405d94744777fe95c32a004ee01da02eac807eb21fa7c1571","required: 9Ya7Yyre,P7dR8mSH","","P7dR8mSH","","P7dR8mSH","","",""
"required","mod","1.21.5","inertiaanticheat","fabric","v1.0.4.3","InertiaAntiCheat","Required anti-cheat mod for server access","InertiaAntiCheat-1.0.4.3.jar","https://modrinth.com/mod/inertiaanticheat","Performance & Protection","https://cdn.modrinth.com/data/ljWczies/versions/6vy9YzxA/InertiaAntiCheat-1.0.4.3.jar","https://cdn.modrinth.com/data/ljWczies/versions/6vy9YzxA/InertiaAntiCheat-1.0.4.3.jar","v1.0.4.3","modrinth","modrinth","","","","","","","","","1.21.5","4a56d3ade3e27e82ae02d903f340ceffdee0c3f1ed92ddafd91ea43cfee46313","required: P7dR8mSH","","P7dR8mSH","","P7dR8mSH","","",""
"required","mod","1.21.5","iris","fabric","1.8.11+1.21.5-fabric","Iris","Shaders mod compatible with OptiFine packs","iris-fabric-1.8.11+mc1.21.5.jar","https://modrinth.com/mod/iris","Performance & Protection","https://cdn.modrinth.com/data/YL57xq9U/versions/U6evbjd0/iris-fabric-1.8.11%2Bmc1.21.5.jar","https://cdn.modrinth.com/data/YL57xq9U/versions/U6evbjd0/iris-fabric-1.8.11%2Bmc1.21.5.jar","1.8.11+1.21.5-fabric","modrinth","modrinth",,,,,,,,,"1.21.5","6cbbea7b7c13ac420fbfdc6c273485e3dfdec2f89acf6a6fb3672973e1efd707","required: AANobbMI","","AANobbMI","","AANobbMI","","",""
"required","mod","1.21.5","betterf3","fabric","v14.0.0","BetterF3","Customisable debug HUD","BetterF3-14.0.0-Fabric-1.21.5.jar","https://modrinth.com/mod/betterf3","Performance & Protection","https://cdn.modrinth.com/data/8shC1gFX/versions/yioiBxNH/BetterF3-14.0.0-NeoForge-1.21.5.jar","https://cdn.modrinth.com/data/8shC1gFX/versions/yioiBxNH/BetterF3-14.0.0-NeoForge-1.21.5.jar","v14.0.0","modrinth","modrinth","","","","","","","","","1.21.5","07f064ef803c35d19cb5d2ded3404934e248f206b9e22e87bc28580bc6d580b2","required: 9s6osm5g,9s6osm5g; optional: mOgUt4GM","","9s6osm5g","mOgUt4GM","9s6osm5g","mOgUt4GM","",""
"required","mod","1.21.5","egg-of-capitalism","fabric","v4.0","Egg Of Capitalism","Drops a personal dragon egg upon ""The End"" achievement","egg-of-capitalism-mc1.20.5-4.0.jar","https://modrinth.com/mod/egg-of-capitalism","Miscellaneous","https://cdn.modrinth.com/data/llThBwQo/versions/S5qEeVFl/egg-of-capitalism-mc1.20.5-4.0.jar","https://cdn.modrinth.com/data/llThBwQo/versions/S5qEeVFl/egg-of-capitalism-mc1.20.5-4.0.jar","mc1.20.5-4.0","modrinth","modrinth","https://cdn.modrinth.com/data/llThBwQo/icon.png","unsupported","required","Egg Of Capitalism","Get a dragon egg for every ""The End."" achievement.","https://github.com/Kir-Antipov/egg-of-capitalism/issues/new/choose","https://github.com/Kir-Antipov/egg-of-capitalism","","1.20.6","acf1eaf77636ce433e23a958c3dd547e32a3b0e41880754046e65edc3a884b32","","","","","","","",""
"admin","mod","1.21.5","litematica","fabric","0.22.1","Litematica","Schematic-based building tool for administrators","litematica-fabric-1.21.5-0.22.1.jar","https://modrinth.com/mod/litematica","Admin","https://cdn.modrinth.com/data/bEpr0Arc/versions/ZIFjKvzv/litematica-fabric-1.21.5-0.22.1.jar","https://cdn.modrinth.com/data/bEpr0Arc/versions/ZIFjKvzv/litematica-fabric-1.21.5-0.22.1.jar","0.22.1","modrinth","modrinth","","","","","","","","","1.21.5","44841c7153d9ce4aafc8b03113e3933821410ca1717fcda86eee4f03b2a06feb","required: GcWjdA9I","","GcWjdA9I","","GcWjdA9I","","",""
"required","mod","1.21.5","amecs-reborn","fabric","v2.0.2+mc1.21.5","Amecs Reborn","A mod that adds mouse and keyboard controls to Minecraft allowing for better control schemes","Amecs-Reborn-2.0.2+mc1.21.5.jar","https://modrinth.com/mod/amecs-reborn","Core & Utility","https://cdn.modrinth.com/data/IjgEpZeq/versions/HnQJNS8B/Amecs-Reborn-2.0.2%2Bmc1.21.5.jar","https://cdn.modrinth.com/data/IjgEpZeq/versions/HnQJNS8B/Amecs-Reborn-2.0.2%2Bmc1.21.5.jar","v2.0.2+mc1.21.5","modrinth","modrinth","","","","","","","","","1.21.5","9944b3327b5947a60e430dba2b65de658c8aa059c08c8424d89558a1eb8f80a4","required: P7dR8mSH,wxtqhcW6","","P7dR8mSH","","P7dR8mSH","","",""
"required","mod","1.21.5","anti-xray","fabric","v1.4.10+1.21.5","AntiXray","A server-side anti-xray plugin that prevents players from using xray hacks to find ores","antixray-fabric-1.4.10+1.21.5.jar","https://modrinth.com/mod/antixray","Performance & Protection","https://cdn.modrinth.com/data/sml2FMaA/versions/beD7Km4F/antixray-neoforge-1.4.10%2B1.21.5.jar","https://cdn.modrinth.com/data/sml2FMaA/versions/beD7Km4F/antixray-neoforge-1.4.10%2B1.21.5.jar","v1.4.10+1.21.5","modrinth","modrinth","","","","","","","","","1.21.5","75ebc12d38eb4baae69508cec1b730f0b8b0124144a22cc3cdaf180323b15efc","","","","","","","",""
"required","mod","1.21.5","elytra-armor","fabric","v1.6.0","Armored Elytra","Allows you to combine an elytra with a chestplate to create an armored elytra","armored-elytra-1.6.0.jar","https://modrinth.com/datapack/elytra-armor","Storage & Inventory","https://cdn.modrinth.com/data/AuFCCYMx/versions/7MFV4XW6/armored-elytra-1.6.0.jar","https://cdn.modrinth.com/data/AuFCCYMx/versions/7MFV4XW6/armored-elytra-1.6.0.jar","v1.6.0","modrinth","modrinth","","","","","","","","","1.21.5","5f32da24ae4643f28ce040e63a1ad55c95eca77012d1b464f84a2d8e864a060f","required: P7dR8mSH","","P7dR8mSH","","P7dR8mSH","","",""
"required","mod","1.21.5","c2me-fabric","fabric","v0.3.3.0.0","C2ME","A Fabric mod designed to improve the chunk performance of Minecraft","c2me-fabric-mc1.21.5-0.3.3.0.0.jar","https://modrinth.com/mod/c2me-fabric","Performance & Protection","https://cdn.modrinth.com/data/VSNURh3q/versions/jrmtD6AF/c2me-fabric-mc1.21.5-0.3.3.0.0.jar","https://cdn.modrinth.com/data/VSNURh3q/versions/jrmtD6AF/c2me-fabric-mc1.21.5-0.3.3.0.0.jar","v0.3.3.0.0","modrinth","modrinth","","","","","","","","","1.21.5","c9d6af2259ae6ac93f244d2184138b196ee2797bb773522b57569153bc58eb18","","","","","","","",""
"required","mod","1.21.5","clumps","fabric","v23.0.0.1","Clumps","Clumps XP orbs together to reduce lag when collecting experience","Clumps-fabric-1.21.5-23.0.0.1.jar","https://modrinth.com/mod/clumps","Performance & Protection","https://cdn.modrinth.com/data/Wnxd13zP/versions/2qitNPmx/Clumps-neoforge-1.21.5-23.0.0.1.jar","https://cdn.modrinth.com/data/Wnxd13zP/versions/2qitNPmx/Clumps-neoforge-1.21.5-23.0.0.1.jar","v23.0.0.1","modrinth","modrinth","","","","","","","","","1.21.5","81223834fe053a07696b07e95eff7efb8893def9b527730c687d9cdfd4f02d7b","required: P7dR8mSH","","P7dR8mSH","","P7dR8mSH","","",""
"required","mod","1.21.5","jade","fabric","v18.2.0","Jade","Shows what you're looking at in an info box. Hwyla fork for modern Minecraft versions","Jade-1.21.5-Fabric-18.2.0.jar","https://modrinth.com/mod/jade","World & Exploration","https://cdn.modrinth.com/data/nvQzSEkH/versions/VNSIKHbV/Jade-1.21.5-Fabric-18.2.0.jar","https://cdn.modrinth.com/data/nvQzSEkH/versions/VNSIKHbV/Jade-1.21.5-Fabric-18.2.0.jar","v18.2.0","modrinth","modrinth","","","","","","","","","1.21.5","363e4aac08482e543faa7a1690d394223e6946a7842e5b17748aa89a90243101","optional: u6dRKJwZ","","","u6dRKJwZ","","u6dRKJwZ","",""
"required","mod","1.21.5","lambdynamiclights","fabric","v4.2.7+1.21.5","LambDynamicLights","Adds dynamic lighting to the game. Light sources will emit light dynamically","lambdynamiclights-4.2.7+1.21.5.jar","https://modrinth.com/mod/lambdynamiclights","World & Exploration","https://cdn.modrinth.com/data/yBW8D80W/versions/STvJaSpP/lambdynamiclights-4.2.7%2B1.21.5.jar","https://cdn.modrinth.com/data/yBW8D80W/versions/STvJaSpP/lambdynamiclights-4.2.7%2B1.21.5.jar","v4.2.7+1.21.5","modrinth","modrinth","","","","","","","","","1.21.5","b97590096ce87809f172c136d8f3fc9d3917f115b4d7986a61a120eda8341c71","required: reCfnRvJ,PxQSWIcD,P7dR8mSH","","P7dR8mSH","","P7dR8mSH","","",""
"required","mod","1.21.5","ledger","fabric","v1.3.10","Ledger","A client-side mod that logs block interactions and entity spawns to help with griefing investigations","ledger-1.3.10.jar","https://modrinth.com/mod/ledger","World & Exploration","https://cdn.modrinth.com/data/LVN9ygNV/versions/IGthG5z2/ledger-1.3.10.jar","https://cdn.modrinth.com/data/LVN9ygNV/versions/IGthG5z2/ledger-1.3.10.jar","v1.3.10","modrinth","modrinth","","","","","","","","","1.21.5","dd82cc3cda523e8127366dd2fa4fb516882ff7a7fa1c833ff1196cf0b8809a2e","required: MLYQ9VGP,P7dR8mSH,Ha28R6CL","","Ha28R6CL,P7dR8mSH","","Ha28R6CL,P7dR8mSH","","",""
"required","mod","1.21.5","lithium","fabric","mc1.21.6-0.17.0-fabric","Lithium","No-compromises game logic optimization mod","lithium-fabric-0.17.0+mc1.21.6.jar","https://modrinth.com/mod/lithium","Performance & Protection","https://cdn.modrinth.com/data/gvQqBUqZ/versions/XWGBHYcB/lithium-fabric-0.17.0%2Bmc1.21.6.jar","https://cdn.modrinth.com/data/gvQqBUqZ/versions/77EtzYFA/lithium-fabric-0.18.0%2Bmc1.21.7.jar","mc1.21.7-0.18.0-fabric","modrinth","modrinth","https://cdn.modrinth.com/data/gvQqBUqZ/bcc8686c13af0143adf4285d741256af824f70b7_96.webp","optional","optional","Lithium","No-compromises game logic optimization mod. Well suited for clients and servers of all kinds. Now available for Fabric and NeoForge!","https://github.com/caffeinemc/lithium-fabric/issues","https://github.com/caffeinemc/lithium-fabric","","1.21.7","ff3d4531b47f031026783d767785e68368484c17af7a3e90f056fc5c1e7fae39","","","","","","","",""
"required","mod","1.21.5","luckperms","fabric","v5.4.150","LuckPerms","A permissions plugin for Minecraft servers. It allows server admins to control what features players can use by creating groups and assigning permissions","LuckPerms-Fabric-5.4.150.jar","https://modrinth.com/mod/luckperms","Multiplayer & Server","https://cdn.modrinth.com/data/Vebnzrzj/versions/6h9SnsZu/LuckPerms-Fabric-5.4.150.jar","https://cdn.modrinth.com/data/Vebnzrzj/versions/6h9SnsZu/LuckPerms-Fabric-5.4.150.jar","v5.4.150","modrinth","modrinth","","","","","","","","","1.21.5","bfc9a087d6fb1afc0defe2e74a24f13e592f00b7582931fa86791cbead1cf58a","","","","","","","",""
"required","mod","1.21.5","sdlink","fabric","v3.3.1","SimpleDiscordLink","A simple Discord integration mod that allows you to link your Minecraft server to Discord","SimpleDiscordLink-Universal-3.3.1.jar","https://modrinth.com/mod/sdlink","Multiplayer & Server","https://cdn.modrinth.com/data/Sh0YauEf/versions/U3TpSJoR/SimpleDiscordLink-Universal-3.3.1.jar","https://cdn.modrinth.com/data/Sh0YauEf/versions/U3TpSJoR/SimpleDiscordLink-Universal-3.3.1.jar","v3.3.1","modrinth","modrinth","","","","","","","","","1.21.5","84796d75f00417d948c8e235d2fa8f064f09f5c8a6213942c7461e8b1db98a53","required: Nn8Wasaq","","Nn8Wasaq","","Nn8Wasaq","","",""
"required","mod","1.21.5","syncmatica","fabric ","1.21.5-0.3.14","Syncmatica","A mod that allows you to share and sync Litematica schematics between players on a server","syncmatica-fabric-1.21.5-0.3.14-sakura.4.jar","https://modrinth.com/mod/syncmatica","World & Exploration","https://cdn.modrinth.com/data/bfneejKo/versions/7Ma32dRR/syncmatica-fabric-1.21.5-0.3.14-sakura.4.jar","https://cdn.modrinth.com/data/bfneejKo/versions/warTTmr4/syncmatica-fabric-1.21.7-0.3.15.jar","0.3.15","modrinth","modrinth","https://cdn.modrinth.com/data/bfneejKo/0792df2997b30cfa6d3e9e510d38b5c7f6ada442_96.webp","required","required","Syncmatica","Syncmatica is a mod which aims to mod into litematica so that schematics and their placements can be easily shared.","https://github.com/End-Tech/syncmatica/issues","https://github.com/End-Tech/syncmatica","","1.21.7","13246250692f4134d822b105abaa24af43dfa44b9b95a9de2e32e3bd87a3f902","","","","","","bEpr0Arc,GcWjdA9I","",""
"block","mod","1.21.5","no-chat-reports","fabric","Fabric-1.21.7-v2.14.0","No Chat Reports","Makes chat unreportable (where possible)","NoChatReports-FABRIC-1.21.7-v2.14.0.jar","https://modrinth.com/mod/no-chat-reports","","https://cdn.modrinth.com/data/qQyHxfxd/versions/LhwpK0O6/NoChatReports-FABRIC-1.21.7-v2.14.0.jar","https://cdn.modrinth.com/data/qQyHxfxd/versions/LhwpK0O6/NoChatReports-FABRIC-1.21.7-v2.14.0.jar","Fabric-1.21.7-v2.14.0","modrinth","modrinth","https://cdn.modrinth.com/data/qQyHxfxd/icon.png","optional","optional","No Chat Reports","Makes chat unreportable (where possible)","https://github.com/Aizistral-Studios/No-Chat-Reports/issues","https://github.com/Aizistral-Studios/No-Chat-Reports","https://github.com/Aizistral-Studios/No-Chat-Reports/wiki","1.21.7","85c66716aa2fcd68f1737e479f90e4a976cae17ef146074bd9330b06f4a27853","","","P7dR8mSH","9s6osm5g,mOgUt4GM","P7dR8mSH","9s6osm5g,mOgUt4GM","",""
"required","installer","1.21.5","fabric-installer-1.0.3","fabric","1.0.3","Fabric Installer","","","https://maven.fabricmc.net/net/fabricmc/fabric-installer/1.0.3/fabric-installer-1.0.3.exe","","","","","direct","direct","","","","Fabric Installer","","","","","","e2ba1af1835f19a7b0d92a4c39164cf756ed3bf0c33bb90603704339f9d11270","","","","","","","",""
"required","installer","1.21.6","fabric-installer-1.0.3","fabric","1.0.3","Fabric Installer","","","https://maven.fabricmc.net/net/fabricmc/fabric-installer/1.0.3/fabric-installer-1.0.3.exe","","","","","direct","direct","","","","Fabric Installer","","","","","","f7495442666975b373b98fa6e143eb3966c9be7fe9a20d894cb537929790aa90","","","","","","","",""
"required","launcher","1.21.5","fabric-server-launcher-1.21.5","fabric","1.0.3","Fabric Server Launcher","","fabric-server-mc.1.21.5-loader.0.16.14-launcher.1.0.3.jar","https://meta.fabricmc.net/v2/versions/loader/1.21.5/0.16.14/1.0.3/server/jar","","","","","direct","direct","","","","Fabric Server Launcher","","","","","","990c54cfa48c68f9ad95ceda9800b7be7941588bd6b10d3759ea4a61b4d92c20","","","","","","","",""
"required","launcher","1.21.6","fabric-server-launcher-1.21.6","fabric","1.0.3","Fabric Server Launcher","","fabric-server-mc.1.21.6-loader.0.16.14-launcher.1.0.3.jar","https://meta.fabricmc.net/v2/versions/loader/1.21.6/0.16.14/1.0.3/server/jar","","","","","direct","direct","","","","Fabric Server Launcher","","","","","","44cf7f69d9acbfa0df53c6f1417fd0ce91188ecdcdf9453a108f3c36074de6a9","","","","","","","",""
"required","server","1.21.5","minecraft-server-1.21.5","vanilla","1.21.5","Minecraft Server","","minecraft_server.1.21.5.jar","https://piston-data.mojang.com/v1/objects/e6ec2f64e6080b9b5d9b471b291c33cc7f509733/server.jar","","https://piston-data.mojang.com/v1/objects/e6ec2f64e6080b9b5d9b471b291c33cc7f509733/server.jar","https://piston-data.mojang.com/v1/objects/e6ec2f64e6080b9b5d9b471b291c33cc7f509733/server.jar","1.21.5","direct","direct","","","","Minecraft Server","","","","","","1f2c74aa75ee46c2e09f211f1750c646ca089a3ae93ff2bd30aadf5aec7238cf","","","","","","","",""
"required","server","1.21.6","minecraft-server-1.21.6","fabric","1.21.6","Minecraft Server","","minecraft_server.1.21.6.jar","https://piston-data.mojang.com/v1/objects/6e64dcabba3c01a7271b4fa6bd898483b794c59b/server.jar","","https://piston-data.mojang.com/v1/objects/6e64dcabba3c01a7271b4fa6bd898483b794c59b/server.jar","https://piston-data.mojang.com/v1/objects/6e64dcabba3c01a7271b4fa6bd898483b794c59b/server.jar","1.21.6","direct","direct","","","","Minecraft Server","","","","","","299b5eefb405c443a2b3e78a3a9eaca8d1bc9b90110c7b9dbfcff078a3025457","","","","","","","",""
"optional","shaderpack","1.21.5","complementary-reimagined","iris","r5.5.1","Complementary Reimagined","Beautiful shaderpack","","https://modrinth.com/shader/complementary-reimagined","","https://cdn.modrinth.com/data/HVnmMxH1/versions/sAAjYvFB/ComplementaryReimagined_r5.5.1.zip","https://cdn.modrinth.com/data/HVnmMxH1/versions/sAAjYvFB/ComplementaryReimagined_r5.5.1.zip","r5.5.1","modrinth","modrinth","","","","","","","","","1.21.5","b8581511c0921fd836928832bde03249ae43fd7d6463242eb38c631f96094697","","","","","","","",""
"optional","shaderpack","1.21.5","astralex","iris","93.0","AstraLex Shaders","","","https://modrinth.com/shader/astralex","","https://cdn.modrinth.com/data/RphJSnEs/versions/qSbtQS2o/%C2%A7r%C2%A7lAstra%C2%A74%C2%A7lLex%C2%A7r%C2%A7l_By_LexBoosT_%C2%A74%C2%A7lV93.0%C2%A7r%C2%A7l.zip","https://cdn.modrinth.com/data/RphJSnEs/versions/qSbtQS2o/%C2%A7r%C2%A7lAstra%C2%A74%C2%A7lLex%C2%A7r%C2%A7l_By_LexBoosT_%C2%A74%C2%A7lV93.0%C2%A7r%C2%A7l.zip","93.0","modrinth","modrinth","","","","","","","","","1.21.5","1ba414c9d93968b211f2de6ce2fb675d88313f8852873fbff09879fd828dc5e3","","","","","","","",""
"optional","shaderpack","1.21.5","bsl-shaders","iris","10.0","BSL Shaders","","","https://modrinth.com/shader/bsl-shaders","","https://cdn.modrinth.com/data/Q1vvjJYV/versions/jRn8y2VF/BSL_v10.0.zip","https://cdn.modrinth.com/data/Q1vvjJYV/versions/jRn8y2VF/BSL_v10.0.zip","10.0","modrinth","modrinth","","","","","","","","","1.21.5","93b7a44492019319552c9ddfd1992d3ce011560f7061879c729a1404e807b045","","","","","","","",""
"optional","shaderpack","1.21.5","complementary-unbound","iris","r5.5.1","Complementary Shaders - Unbound","","","https://modrinth.com/shader/complementary-unbound","","https://cdn.modrinth.com/data/R6NEzAwj/versions/1ng9gVp7/ComplementaryUnbound_r5.5.1.zip","https://cdn.modrinth.com/data/R6NEzAwj/versions/1ng9gVp7/ComplementaryUnbound_r5.5.1.zip","r5.5.1","modrinth","modrinth","","","","","","","","","1.21.5","addd87451b6355449c74bf314fdd5206c563d524f300e61ece6b8b0c872d6963","","","","","","","",""
