"Name","ID","ExpectedVersion","Loader","Host","VersionExists","ResponseFile","Error","AvailableVersions","AvailableGameVersions","LatestVersion","VersionUrl","LatestVersionUrl","NextVersion","NextVersionUrl","NextGameVersion","IconUrl","ClientSide","ServerSide","Title","ProjectDescription","IssuesUrl","SourceUrl","WikiUrl","VersionFoundByJar","LatestGameVersion","CurrentDependencies","LatestDependencies","CurrentDependenciesRequired","CurrentDependenciesOptional","LatestDependenciesRequired","LatestDependenciesOptional"
"Fabric API","fabric-api",,"fabric","modrinth","True","apiresponse\fabric-api-0.136.0+1.21.8.json",,,"","0.136.0+1.21.8","https://cdn.modrinth.com/data/P7dR8mSH/versions/RMahJx2I/fabric-api-0.136.0%2B1.21.8.jar","https://cdn.modrinth.com/data/P7dR8mSH/versions/RMahJx2I/fabric-api-0.136.0%2B1.21.8.jar","0.134.0+1.21.9","https://cdn.modrinth.com/data/P7dR8mSH/versions/iHrvVvaM/fabric-api-0.134.0%2B1.21.9.jar","1.21.9","https://cdn.modrinth.com/data/P7dR8mSH/icon.png","optional","optional","Fabric API","Lightweight and modular API providing common hooks and intercompatibility measures utilized by mods using the Fabric toolchain.","https://github.com/FabricMC/fabric/issues","https://github.com/FabricMC/fabric","https://fabricmc.net/wiki/",,"1.21.8","","","","","",""
"Cloth Config","cloth-config",,"fabric","modrinth","True","apiresponse\cloth-config-19.0.147+fabric.json",,,"","19.0.147+fabric","https://cdn.modrinth.com/data/9s6osm5g/versions/cz0b1j8R/cloth-config-19.0.147-fabric.jar","https://cdn.modrinth.com/data/9s6osm5g/versions/cz0b1j8R/cloth-config-19.0.147-fabric.jar","20.0.149+fabric","https://cdn.modrinth.com/data/9s6osm5g/versions/qMxkrrmq/cloth-config-20.0.149-fabric.jar","1.21.9","https://cdn.modrinth.com/data/9s6osm5g/ed8a2316cbb6f4fc5f510e8e13a59a85cbbbff4d_96.webp","optional","optional","Cloth Config API","Configuration Library for Minecraft Mods","https://github.com/shedaniel/ClothConfig/issues","https://github.com/shedaniel/ClothConfig/","https://shedaniel.gitbook.io/cloth-config/",,"1.21.6","","","","","",""
"Forge Config API Port","forge-config-api-port",,"fabric","modrinth","True","apiresponse\forge-config-api-port-v21.8.1-1.21.8-Fabric.json",,,"","v21.8.1-1.21.8-Fabric","https://cdn.modrinth.com/data/ohNO6lps/versions/daREdLQt/ForgeConfigAPIPort-v21.8.1-1.21.8-Fabric.jar","https://cdn.modrinth.com/data/ohNO6lps/versions/daREdLQt/ForgeConfigAPIPort-v21.8.1-1.21.8-Fabric.jar","21.9.8","https://cdn.modrinth.com/data/ohNO6lps/versions/3Zr2vML8/ForgeConfigAPIPort-v21.9.8%2Bmc1.21.9-Fabric.jar","1.21.9","https://cdn.modrinth.com/data/ohNO6lps/cb3b942cc18a66a0f35f802e004713f134e46cc2_96.webp","optional","optional","Forge Config API Port","NeoForge's & Forge's config systems provided to other modding ecosystems. Designed for a multiloader architecture.","https://github.com/Fuzss/forgeconfigapiport/issues","https://github.com/Fuzss/forgeconfigapiport","https://github.com/Fuzss/forgeconfigapiport/wiki",,"1.21.8","required: P7dR8mSH","required: P7dR8mSH","","","",""
"CraterLib","craterlib",,"fabric","modrinth","True","apiresponse\craterlib-1.21.6-2.1.5.json",,,"","1.21.6-2.1.5","https://cdn.modrinth.com/data/Nn8Wasaq/versions/o3hiSSue/CraterLib-Fabric-1.21.6-2.1.5.jar","https://cdn.modrinth.com/data/Nn8Wasaq/versions/o3hiSSue/CraterLib-Fabric-1.21.6-2.1.5.jar","1.21.9-2.1.5","https://cdn.modrinth.com/data/Nn8Wasaq/versions/8vFjssBM/CraterLib-Fabric-1.21.9-2.1.5.jar","1.21.9","https://cdn.modrinth.com/data/Nn8Wasaq/67adb90c42e20705a98813bef7bf9779984f4cf5_96.webp","optional","optional","CraterLib","Library mod for HypherionSA and First Dark Development mods","https://github.com/firstdarkdev/CraterLib-mirror/issues","https://github.com/firstdarkdev/CraterLib-mirror","",,"1.21.6","required: P7dR8mSH; optional: 9s6osm5g,mOgUt4GM","required: P7dR8mSH; optional: 9s6osm5g,mOgUt4GM","","","",""
"Balm","balm",,"fabric","modrinth","True","apiresponse\balm-21.8.10+fabric-1.21.8.json",,,"","21.8.10+fabric-1.21.8","https://cdn.modrinth.com/data/MBAkmtvl/versions/6STx1UB9/balm-fabric-1.21.8-21.8.10.jar","https://cdn.modrinth.com/data/MBAkmtvl/versions/6STx1UB9/balm-fabric-1.21.8-21.8.10.jar","21.9.4+fabric-1.21.9","https://cdn.modrinth.com/data/MBAkmtvl/versions/7TxO9j9o/balm-fabric-1.21.9-21.9.4.jar","1.21.9","https://cdn.modrinth.com/data/MBAkmtvl/285b7bcfd6e525c043e640b08f3efc0cde90f7dd_96.webp","optional","optional","Balm","Abstraction Layer for Multiplatform Mods","https://github.com/TwelveIterationMods/Balm/issues","https://github.com/TwelveIterationMods/Balm","https://balm.twelveiterations.com/",,"1.21.7","required: P7dR8mSH","required: P7dR8mSH","","","",""
"Fabric Language Kotlin","fabric-language-kotlin",,"fabric","modrinth","True","apiresponse\fabric-language-kotlin-1.13.7+kotlin.2.2.21.json",,,"","1.13.7+kotlin.2.2.21","https://cdn.modrinth.com/data/Ha28R6CL/versions/LcgnDDmT/fabric-language-kotlin-1.13.7%2Bkotlin.2.2.21.jar","https://cdn.modrinth.com/data/Ha28R6CL/versions/LcgnDDmT/fabric-language-kotlin-1.13.7%2Bkotlin.2.2.21.jar","1.13.7+kotlin.2.2.21","https://cdn.modrinth.com/data/Ha28R6CL/versions/LcgnDDmT/fabric-language-kotlin-1.13.7%2Bkotlin.2.2.21.jar","1.21.9","https://cdn.modrinth.com/data/Ha28R6CL/72c3d74aeb665e45aea93a945a01474cbce3b7da_96.webp","optional","optional","Fabric Language Kotlin","This is a mod that enables usage of the Kotlin programming language for Fabric mods.","https://github.com/FabricMC/fabric-language-kotlin/issues","https://github.com/FabricMC/fabric-language-kotlin/","https://fabricmc.net/wiki/",,"1.14","","","","","",""
"Collective","collective",,"fabric","modrinth","True","apiresponse\collective-1.21.8-8.11-fabric+forge+neo.json",,,"","1.21.8-8.11-fabric+forge+neo","https://cdn.modrinth.com/data/e0M1UDsY/versions/8tJ3qV5y/collective-1.21.8-8.11.jar","https://cdn.modrinth.com/data/e0M1UDsY/versions/8tJ3qV5y/collective-1.21.8-8.11.jar","1.21.9-8.9-fabric+forge+neo","https://cdn.modrinth.com/data/e0M1UDsY/versions/eJb8QANu/collective-1.21.9-8.9.jar","1.21.9","https://cdn.modrinth.com/data/e0M1UDsY/f5e4fe9ac298e2c14591920d6bda937c566accd0_96.webp","optional","optional","Collective","ðŸŽ“ Collective is a shared library with common code for all of Serilum's mods.","https://github.com/Serilum/.issue-tracker/labels/Library: Collective","https://github.com/Serilum/Collective","",,"1.21.8","","","","","",""
"Architectury API","architectury-api",,"fabric","modrinth","True","apiresponse\architectury-api-17.0.8+fabric.json",,,"","17.0.8+fabric","https://cdn.modrinth.com/data/lhGA9TYQ/versions/XcJm5LH4/architectury-17.0.8-fabric.jar","https://cdn.modrinth.com/data/lhGA9TYQ/versions/XcJm5LH4/architectury-17.0.8-fabric.jar","18.0.5+fabric","https://cdn.modrinth.com/data/lhGA9TYQ/versions/qkIZZKUH/architectury-18.0.5-fabric.jar","1.21.9","https://cdn.modrinth.com/data/lhGA9TYQ/05fe3a61c28faaccaec3533b92e1b321edde7bf6_96.webp","required","required","Architectury API","An intermediary api aimed to ease developing multiplatform mods.","https://github.com/architectury/architectury/issues","https://github.com/architectury/architectury","",,"1.21.7","required: P7dR8mSH","required: P7dR8mSH","","","",""
"JamLib","jamlib",,"fabric","modrinth","True","apiresponse\jamlib-1.3.5+1.21.8.json",,,"","1.3.5+1.21.8","https://cdn.modrinth.com/data/IYY9Siz8/versions/4kGByLs3/jamlib-fabric-1.3.5%2B1.21.8.jar","https://cdn.modrinth.com/data/IYY9Siz8/versions/4kGByLs3/jamlib-fabric-1.3.5%2B1.21.8.jar","1.3.5+1.21.10","https://cdn.modrinth.com/data/IYY9Siz8/versions/C0PstXFz/jamlib-fabric-1.3.5%2B1.21.10.jar","1.21.9","https://cdn.modrinth.com/data/IYY9Siz8/7585f4d35b18467c2d0d9c496e3b7cd4919c413a_96.webp","required","required","JamLib","The platform-agnostic, Architectury based library used in all of JamCoreModding's mods","https://github.com/JamCoreModding/jam-lib/issues","https://github.com/JamCoreModding/jam-lib","",,"1.21.6","required: lhGA9TYQ,P7dR8mSH","required: lhGA9TYQ,P7dR8mSH","","","",""
"libIPN","libipn",,"fabric","modrinth","True","apiresponse\libipn-fabric-1.21.6-6.6.0.json",,,"","fabric-1.21.6-6.6.0","https://cdn.modrinth.com/data/onSQdWhM/versions/V5FdwBb3/libIPN-fabric-1.21.6-6.6.0.jar","https://cdn.modrinth.com/data/onSQdWhM/versions/V5FdwBb3/libIPN-fabric-1.21.6-6.6.0.jar","fabric-1.21.9-6.6.0","https://cdn.modrinth.com/data/onSQdWhM/versions/ATLsm4F4/libIPN-fabric-1.21.9-6.6.0.jar","1.21.9","https://cdn.modrinth.com/data/onSQdWhM/feb2d62d9f150539bfd2a69d373866b1e643545c_96.webp","required","unsupported","libIPN","Inventory Profiles Next GUI/Config library","","https://github.com/blackd/libIPN","",,"1.21.6","required: Ha28R6CL,P7dR8mSH","required: Ha28R6CL,P7dR8mSH","","","",""
"ukulib","ukulib",,"fabric","modrinth","True","apiresponse\ukulib-1.8.2+1.21.6.json",,,"","1.8.2+1.21.6","https://cdn.modrinth.com/data/Y8uFrUil/versions/AdBiSP4T/ukulib-1.8.2%2B1.21.6.jar","https://cdn.modrinth.com/data/Y8uFrUil/versions/AdBiSP4T/ukulib-1.8.2%2B1.21.6.jar","1.9.0+1.21.9","https://cdn.modrinth.com/data/Y8uFrUil/versions/EsXqtkdN/ukulib-1.9.0%2B1.21.9.jar","1.21.9","https://cdn.modrinth.com/data/Y8uFrUil/3306adc6d3ba21b11bb14f06f00c21cd5f47e506.webp","required","unsupported","ukulib","small utility library used in my mods","","https://github.com/uku3lig/ukulib","",,"1.21.6","","","","","",""
"Placeholder API","placeholder-api",,"fabric","modrinth","True","apiresponse\placeholder-api-2.7.2+1.21.8.json",,,"","2.7.2+1.21.8","https://cdn.modrinth.com/data/eXts2L7r/versions/1S1kjZ9W/placeholder-api-2.7.2%2B1.21.8.jar","https://cdn.modrinth.com/data/eXts2L7r/versions/1S1kjZ9W/placeholder-api-2.7.2%2B1.21.8.jar","2.8.1+1.21.10","https://cdn.modrinth.com/data/eXts2L7r/versions/T5pDJV1K/placeholder-api-2.8.1%2B1.21.10.jar","1.21.9","https://cdn.modrinth.com/data/eXts2L7r/e9c9990896e6422bffc5f73d2c41b8f077348f83.png","optional","optional","Text Placeholder API","Placeholder and Text manipulation library for your Minecraft mods.","https://github.com/Patbox/TextPlaceholderAPI/issues","https://github.com/Patbox/TextPlaceholderAPI","https://placeholders.pb4.eu/",,"1.21.6","","","","","",""
"Mod Menu","modmenu",,"fabric","modrinth","True","apiresponse\modmenu-15.0.0.json",,,"","15.0.0","https://cdn.modrinth.com/data/mOgUt4GM/versions/am1Siv7F/modmenu-15.0.0.jar","https://cdn.modrinth.com/data/mOgUt4GM/versions/am1Siv7F/modmenu-15.0.0.jar","16.0.0-rc.1","https://cdn.modrinth.com/data/mOgUt4GM/versions/e0mxOOIE/modmenu-16.0.0-rc.1.jar","1.21.9","https://cdn.modrinth.com/data/mOgUt4GM/1bfe2006b38340e9d064700e41adf84a8abb1bd4_96.webp","required","unsupported","Mod Menu","Adds a mod menu to view the list of mods you have installed.","https://github.com/TerraformersMC/ModMenu/issues","https://github.com/TerraformersMC/ModMenu","https://github.com/TerraformersMC/ModMenu/wiki",,"1.21.6","required: eXts2L7r,P7dR8mSH","required: eXts2L7r,P7dR8mSH","","","",""
"Xaero's World Map","xaeros-world-map",,"fabric","modrinth","True","apiresponse\xaeros-world-map-1.39.13_Fabric_1.21.8.json",,,"","1.39.13_Fabric_1.21.8","https://cdn.modrinth.com/data/NcUtCpym/versions/d1Pc1nIN/XaerosWorldMap_1.39.13_Fabric_1.21.8.jar","https://cdn.modrinth.com/data/NcUtCpym/versions/d1Pc1nIN/XaerosWorldMap_1.39.13_Fabric_1.21.8.jar","1.39.17_Fabric_1.21.9","https://cdn.modrinth.com/data/NcUtCpym/versions/81Qc21E2/XaerosWorldMap_1.39.17_Fabric_1.21.9.jar","1.21.9","https://cdn.modrinth.com/data/NcUtCpym/354080f65407e49f486fcf9c4580e82c45ae63b8_96.webp","required","optional","Xaero's World Map","Adds a full screen world map which shows you what you have explored in the world. Works great together with Xaero's Minimap.","https://curseforge.com/minecraft/mc-mods/xaeros-world-map/issues","","",,"1.21.8","required: P7dR8mSH; optional: gF3BGWvG","required: P7dR8mSH; optional: gF3BGWvG","","","",""
"Xaero's Minimap","xaeros-minimap",,"fabric","modrinth","True","apiresponse\xaeros-minimap-25.2.16_Fabric_1.21.8.json",,,"","25.2.16_Fabric_1.21.8","https://cdn.modrinth.com/data/1bokaNcj/versions/dEIlpdij/Xaeros_Minimap_25.2.16_Fabric_1.21.8.jar","https://cdn.modrinth.com/data/1bokaNcj/versions/dEIlpdij/Xaeros_Minimap_25.2.16_Fabric_1.21.8.jar","25.2.15_Fabric_1.21.9","https://cdn.modrinth.com/data/1bokaNcj/versions/hztxb2W2/Xaeros_Minimap_25.2.15_Fabric_1.21.9.jar","1.21.9","https://cdn.modrinth.com/data/1bokaNcj/354080f65407e49f486fcf9c4580e82c45ae63b8_96.webp","required","optional","Xaero's Minimap","Displays a map of the nearby world terrain, players, mobs, entities in the corner of your screen. Lets you create waypoints which help you find the locations you've marked.","https://curseforge.com/minecraft/mc-mods/xaeros-minimap/issues","","",,"1.21.8","required: P7dR8mSH; optional: gF3BGWvG","required: P7dR8mSH; optional: gF3BGWvG","","","",""
"Xaero's World Map","xaeros-world-map",,"fabric","modrinth","True","apiresponse\xaeros-world-map-1.39.13_Fabric_1.21.8.json",,,"","1.39.13_Fabric_1.21.8","https://cdn.modrinth.com/data/NcUtCpym/versions/d1Pc1nIN/XaerosWorldMap_1.39.13_Fabric_1.21.8.jar","https://cdn.modrinth.com/data/NcUtCpym/versions/d1Pc1nIN/XaerosWorldMap_1.39.13_Fabric_1.21.8.jar","1.39.17_Fabric_1.21.9","https://cdn.modrinth.com/data/NcUtCpym/versions/81Qc21E2/XaerosWorldMap_1.39.17_Fabric_1.21.9.jar","1.21.9","https://cdn.modrinth.com/data/NcUtCpym/354080f65407e49f486fcf9c4580e82c45ae63b8_96.webp","required","optional","Xaero's World Map","Adds a full screen world map which shows you what you have explored in the world. Works great together with Xaero's Minimap.","https://curseforge.com/minecraft/mc-mods/xaeros-world-map/issues","","",,"1.21.8","required: P7dR8mSH; optional: gF3BGWvG","required: P7dR8mSH; optional: gF3BGWvG","","","",""
"Xaero's Minimap","xaeros-minimap",,"fabric","modrinth","True","apiresponse\xaeros-minimap-25.2.16_Fabric_1.21.8.json",,,"","25.2.16_Fabric_1.21.8","https://cdn.modrinth.com/data/1bokaNcj/versions/dEIlpdij/Xaeros_Minimap_25.2.16_Fabric_1.21.8.jar","https://cdn.modrinth.com/data/1bokaNcj/versions/dEIlpdij/Xaeros_Minimap_25.2.16_Fabric_1.21.8.jar","25.2.15_Fabric_1.21.9","https://cdn.modrinth.com/data/1bokaNcj/versions/hztxb2W2/Xaeros_Minimap_25.2.15_Fabric_1.21.9.jar","1.21.9","https://cdn.modrinth.com/data/1bokaNcj/354080f65407e49f486fcf9c4580e82c45ae63b8_96.webp","required","optional","Xaero's Minimap","Displays a map of the nearby world terrain, players, mobs, entities in the corner of your screen. Lets you create waypoints which help you find the locations you've marked.","https://curseforge.com/minecraft/mc-mods/xaeros-minimap/issues","","",,"1.21.8","required: P7dR8mSH; optional: gF3BGWvG","required: P7dR8mSH; optional: gF3BGWvG","","","",""
"Journeymap","journeymap",,"fabric","modrinth","True","apiresponse\journeymap-1.21.8-6.0.0-beta.52+fabric.json",,,"","1.21.8-6.0.0-beta.52+fabric","https://cdn.modrinth.com/data/lfHFW1mp/versions/vuRfR12O/journeymap-fabric-1.21.8-6.0.0-beta.52.jar","https://cdn.modrinth.com/data/lfHFW1mp/versions/vuRfR12O/journeymap-fabric-1.21.8-6.0.0-beta.52.jar","1.21.9-6.0.0-beta.53+fabric","https://cdn.modrinth.com/data/lfHFW1mp/versions/FxkPeHeI/journeymap-fabric-1.21.9-6.0.0-beta.53.jar","1.21.9","https://cdn.modrinth.com/data/lfHFW1mp/a1c571a21a88f6fa59eab67829f216f65ab393ee_96.webp","optional","optional","JourneyMap","Real-time mapping in game or in a web browser as you explore.","https://github.com/TeamJM/journeymap/issues","https://github.com/TeamJM/journeymap","https://journeymap.info",,"1.21.8","","","","","",""
"Waystones","waystones",,"fabric","modrinth","True","apiresponse\waystones-21.8.5+fabric-1.21.8.json",,,"","21.8.5+fabric-1.21.8","https://cdn.modrinth.com/data/LOpKHB2A/versions/jPsizyXy/waystones-fabric-1.21.8-21.8.5.jar","https://cdn.modrinth.com/data/LOpKHB2A/versions/jPsizyXy/waystones-fabric-1.21.8-21.8.5.jar","21.9.2+fabric-1.21.9","https://cdn.modrinth.com/data/LOpKHB2A/versions/117bXtCF/waystones-fabric-1.21.9-21.9.2.jar","1.21.9","https://cdn.modrinth.com/data/LOpKHB2A/6c81041b60d525d63c0b9da497db66cfda215e16_96.webp","required","required","Waystones","Teleport back to activated waystones. For Survival, Adventure or Servers.","https://github.com/TwelveIterationMods/Waystones/issues","https://github.com/TwelveIterationMods/Waystones","https://mods.twelveiterations.com/mc/waystones",,"1.21.8","required: MBAkmtvl,P7dR8mSH","required: MBAkmtvl,P7dR8mSH","","","",""
"MaLiLib","malilib",,"fabric","modrinth","True","apiresponse\malilib-0.25.5.json",,,"","0.25.5","https://cdn.modrinth.com/data/GcWjdA9I/versions/iS29zBBc/malilib-fabric-1.21.8-0.25.5.jar","https://cdn.modrinth.com/data/GcWjdA9I/versions/iS29zBBc/malilib-fabric-1.21.8-0.25.5.jar","0.26.3","https://cdn.modrinth.com/data/GcWjdA9I/versions/4K7Z6tDa/malilib-fabric-1.21.10-0.26.3.jar","1.21.9","https://cdn.modrinth.com/data/GcWjdA9I/a530ae55df5e0c405f5cf1b3e4fd6163a398bdc3.png","required","unsupported","MaLiLib","A library mod for client-side mods. Contains most of the common/shared code of masa's client mods, and adds some inter-operation support between the dependent mods.","https://github.com/sakura-ryoko/malilib/issues/","https://github.com/maruohon/malilib/","",,"1.21.6","","","","","",""
"WorldEdit","worldedit",,"fabric","modrinth","True","apiresponse\worldedit-7.3.16.json",,,"","7.3.16","https://cdn.modrinth.com/data/1u6JkXh5/versions/R846T4GX/worldedit-mod-7.3.16.jar","https://cdn.modrinth.com/data/1u6JkXh5/versions/R846T4GX/worldedit-mod-7.3.16.jar","7.4.0-beta-01","https://cdn.modrinth.com/data/1u6JkXh5/versions/wlq4UM7x/worldedit-mod-7.4.0-beta-01.jar","1.21.9","https://cdn.modrinth.com/data/1u6JkXh5/30698991048ced77e60c4e8284007d3782f2e6a3_96.webp","unsupported","required","WorldEdit","A Minecraft Map Editor... that runs in-game!
With selections, schematics, copy and paste, brushes, and scripting.
Use it in creative, or use it temporarily in survival.","https://github.com/EngineHub/WorldEdit/issues","https://github.com/EngineHub/WorldEdit/","https://worldedit.enginehub.org/en/latest/",,"1.21.6","","","","","",""
"o?o","owo-lib",,"fabric","modrinth","True","apiresponse\owo-lib-0.12.23+1.21.8.json",,,"","0.12.23+1.21.8","https://cdn.modrinth.com/data/ccKDOlHs/versions/mfHtm034/owo-lib-0.12.23%2B1.21.8.jar","https://cdn.modrinth.com/data/ccKDOlHs/versions/mfHtm034/owo-lib-0.12.23%2B1.21.8.jar","0.12.24+1.21.9","https://cdn.modrinth.com/data/ccKDOlHs/versions/dZPuIa4j/owo-lib-0.12.24%2B1.21.9.jar","1.21.9","https://cdn.modrinth.com/data/ccKDOlHs/42c9fe358c72dd5afda078271c574c325e963d19_96.webp","required","required","oÏ‰o (owo-lib)","A general utility, GUI and config library for modding on Fabric and Quilt","https://github.com/glisco03/owo-lib/issues","https://github.com/glisco03/owo-lib","https://docs.wispforest.io/owo/setup",,"1.21.6","required: P7dR8mSH","required: P7dR8mSH","","","",""
"Tom's Simple Storage Mod","toms-storage",,"fabric","modrinth","True","apiresponse\toms-storage-1.21.8-2.5.1-fabric.json",,,"","1.21.8-2.5.1-fabric","https://cdn.modrinth.com/data/XZNI4Cpy/versions/hUHaVHCk/toms_storage_fabric-1.21.8-2.5.1.jar","https://cdn.modrinth.com/data/XZNI4Cpy/versions/hUHaVHCk/toms_storage_fabric-1.21.8-2.5.1.jar","1.21.8-2.5.1-fabric","https://cdn.modrinth.com/data/XZNI4Cpy/versions/hUHaVHCk/toms_storage_fabric-1.21.8-2.5.1.jar","1.21.9","https://cdn.modrinth.com/data/XZNI4Cpy/1949d7adbf962ac86912608edfb93fa5342bffd6_96.webp","required","required","Tom's Simple Storage Mod","Simple vanilla style storage mod","https://github.com/tom5454/Toms-Storage/issues","https://github.com/tom5454/Toms-Storage","",,"1.21.7","required: 9s6osm5g; optional: 5aaWibi9,fRiHVvU7,nfn13YXA,Orvt0mRa,tagwiZkJ,u6dRKJwZ","required: 9s6osm5g; optional: 5aaWibi9,fRiHVvU7,nfn13YXA,Orvt0mRa,tagwiZkJ,u6dRKJwZ","","","",""
"Traveler's Backpack","travelersbackpack",,"fabric","modrinth","True","apiresponse\travelersbackpack-1.21.8-10.8.4.json",,,"","1.21.8-10.8.4","https://cdn.modrinth.com/data/rlloIFEV/versions/P3LjVY8i/travelersbackpack-fabric-1.21.8-10.8.4.jar","https://cdn.modrinth.com/data/rlloIFEV/versions/P3LjVY8i/travelersbackpack-fabric-1.21.8-10.8.4.jar","1.21.8-10.8.4","https://cdn.modrinth.com/data/rlloIFEV/versions/P3LjVY8i/travelersbackpack-fabric-1.21.8-10.8.4.jar","1.21.9","https://cdn.modrinth.com/data/rlloIFEV/271b2133a315ee3d864ea5a429472f0e71591fe3_96.webp","required","required","Traveler's Backpack","Unique and upgradeable backpacks with customisation, Curios API/Trinkets integration and more!","https://github.com/Tiviacz1337/Travelers-Backpack/issues","https://github.com/Tiviacz1337/Travelers-Backpack","https://github.com/Tiviacz1337/Travelers-Backpack/wiki",,"1.21.7","required: 9s6osm5g,K01OU20C,P7dR8mSH; optional: 5aaWibi9,fRiHVvU7,HnD1GX6e,jtmvUHXj,nfn13YXA,SaCpeal4,tagwiZkJ,u6dRKJwZ,yn9u3ypm","required: 9s6osm5g,K01OU20C,P7dR8mSH; optional: 5aaWibi9,fRiHVvU7,HnD1GX6e,jtmvUHXj,nfn13YXA,SaCpeal4,tagwiZkJ,u6dRKJwZ,yn9u3ypm","","","",""
"Shulker Box Tooltip","shulkerboxtooltip",,"fabric","modrinth","True","apiresponse\shulkerboxtooltip-5.2.11+1.21.8-fabric.json",,,"","5.2.11+1.21.8-fabric","https://cdn.modrinth.com/data/2M01OLQq/versions/hFSSWjId/shulkerboxtooltip-fabric-5.2.11%2B1.21.8.jar","https://cdn.modrinth.com/data/2M01OLQq/versions/hFSSWjId/shulkerboxtooltip-fabric-5.2.11%2B1.21.8.jar","5.2.11+1.21.9-fabric","https://cdn.modrinth.com/data/2M01OLQq/versions/4DMOp59l/shulkerboxtooltip-fabric-5.2.11%2B1.21.9.jar","1.21.9","https://cdn.modrinth.com/data/2M01OLQq/bb490716cf2590cf84100a495931c3d4743bce43_96.webp","required","optional","Shulker Box Tooltip","View the contents of shulker boxes from your inventory","https://github.com/MisterPeModder/ShulkerBoxTooltip/issues","https://github.com/MisterPeModder/ShulkerBoxTooltip","https://github.com/MisterPeModder/ShulkerBoxTooltip/wiki",,"1.21.8","required: P7dR8mSH; optional: mOgUt4GM","required: P7dR8mSH; optional: mOgUt4GM","","","",""
"Inventory Totem","inventory-totem",,"fabric","modrinth","True","apiresponse\inventory-totem-1.21.8-3.4-fabric+forge+neo.json",,,"","1.21.8-3.4-fabric+forge+neo","https://cdn.modrinth.com/data/yQj7xqEM/versions/EKYaWQlO/inventorytotem-1.21.8-3.4.jar","https://cdn.modrinth.com/data/yQj7xqEM/versions/EKYaWQlO/inventorytotem-1.21.8-3.4.jar","1.21.9-3.4-fabric+forge+neo","https://cdn.modrinth.com/data/yQj7xqEM/versions/tF36oGBZ/inventorytotem-1.21.9-3.4.jar","1.21.9","https://cdn.modrinth.com/data/yQj7xqEM/icon.png","unsupported","required","Inventory Totem","ðŸŽ´ Makes the totem of undying effect work when it's anywhere in the inventory.","https://github.com/Serilum/.issue-tracker/labels/Mod: Inventory Totem","https://github.com/Serilum/Inventory-Totem","",,"1.21.8","required: e0M1UDsY","required: e0M1UDsY","","","",""
"AppleSkin","appleskin",,"fabric","modrinth","True","apiresponse\appleskin-3.0.6+mc1.21.6.json",,,"","3.0.6+mc1.21.6","https://cdn.modrinth.com/data/EsAfCjCV/versions/YAjCkZ29/appleskin-fabric-mc1.21.6-3.0.6.jar","https://cdn.modrinth.com/data/EsAfCjCV/versions/YAjCkZ29/appleskin-fabric-mc1.21.6-3.0.6.jar","3.0.7+mc1.21.9","https://cdn.modrinth.com/data/EsAfCjCV/versions/8sbiz1lS/appleskin-fabric-mc1.21.9-3.0.7.jar","1.21.9","https://cdn.modrinth.com/data/EsAfCjCV/icon.png","optional","optional","AppleSkin","Food/hunger-related HUD improvements","https://github.com/squeek502/AppleSkin/issues","https://github.com/squeek502/AppleSkin","",,"1.21.6","required: P7dR8mSH","required: P7dR8mSH","","","",""
"Inventory HUD+","inventoryhudplus",,"fabric","modrinth","True","apiresponse\inventoryhudplus-3.4.27.json",,,"","3.4.27","https://cdn.modrinth.com/data/Kp2uclYl/versions/ose3RsTl/inventoryhud.fabric.1.21.8-3.4.27.jar","https://cdn.modrinth.com/data/Kp2uclYl/versions/ose3RsTl/inventoryhud.fabric.1.21.8-3.4.27.jar","3.4.27","https://cdn.modrinth.com/data/Kp2uclYl/versions/XqbQYx0z/inventoryhud.fabric.1.21.5-3.4.27.jar","1.21.9","https://cdn.modrinth.com/data/Kp2uclYl/9a7a5546c3e77ecac35c07bf5ea3ec7e71c9a8f3_96.webp","required","unsupported","InventoryHUD+","Adds your main inventory, potion effects and your equipments to your HUD. And few other features.","","","",,"1.21.8","","","","","",""
"Inventory Management","inventory-management",,"fabric","modrinth","True","apiresponse\inventory-management-1.6.0+1.21.6.json",,,"","1.6.0+1.21.6","https://cdn.modrinth.com/data/F7wXag4i/versions/sq1lxU3z/inventorymanagement-1.6.0%2B1.21.6.jar","https://cdn.modrinth.com/data/F7wXag4i/versions/sq1lxU3z/inventorymanagement-1.6.0%2B1.21.6.jar","1.6.0+1.21.9","https://cdn.modrinth.com/data/F7wXag4i/versions/gXENH8Ec/inventorymanagement-1.6.0%2B1.21.9.jar","1.21.9","https://cdn.modrinth.com/data/F7wXag4i/952573630299e4f7b3a5458a1cde25d8d52f5cb1_96.webp","required","required","Inventory Management","Sort and transfer items with the click of a button.","https://github.com/Roundaround/mc-fabric-inventory-management/issues","https://github.com/Roundaround/mc-fabric-inventory-management","",,"1.21.6","","","","","",""
"ItemLocks","itemlocks",,"fabric","modrinth","True","apiresponse\itemlocks-1.21.8-1.3.11.json",,,"","1.21.8-1.3.11","https://cdn.modrinth.com/data/tJzrFuyy/versions/riMRlhDh/ItemLocks-Fabric-1.21.8-1.3.11.jar","https://cdn.modrinth.com/data/tJzrFuyy/versions/riMRlhDh/ItemLocks-Fabric-1.21.8-1.3.11.jar","1.21.8-1.3.11","https://cdn.modrinth.com/data/tJzrFuyy/versions/riMRlhDh/ItemLocks-Fabric-1.21.8-1.3.11.jar","1.21.9","https://cdn.modrinth.com/data/tJzrFuyy/44ebf30cca22d764ffffd3428bc7613e58e7a69f.png","required","unsupported","ItemLocks","Lock your inventory items to prevent accidental loss of items.","","","https://itemlocks.com/",,"1.21.8","required: 9s6osm5g; optional: mOgUt4GM","required: 9s6osm5g; optional: mOgUt4GM","","","",""
"Stack Refill","stack-refill",,"fabric","modrinth","True","apiresponse\stack-refill-1.21.8-4.9-fabric+forge+neo.json",,,"","1.21.8-4.9-fabric+forge+neo","https://cdn.modrinth.com/data/mQWkB9ON/versions/rOD8gQJ5/stackrefill-1.21.8-4.9.jar","https://cdn.modrinth.com/data/mQWkB9ON/versions/rOD8gQJ5/stackrefill-1.21.8-4.9.jar","1.21.9-5.0-fabric+forge+neo","https://cdn.modrinth.com/data/mQWkB9ON/versions/lc9ctF0h/stackrefill-1.21.9-5.0.jar","1.21.9","https://cdn.modrinth.com/data/mQWkB9ON/629d108902dcfee2378c7ee0e48460ad80a369fa_96.webp","required","required","Stack Refill","ðŸ“š Automatically refills the player's hand when using the final item if a replacement exists.","https://github.com/Serilum/.issue-tracker/labels/Mod: Stack Refill","https://github.com/Serilum/Stack-Refill","",,"1.21.8","required: e0M1UDsY","required: e0M1UDsY","","","",""
"CraftableNameTag","craftable-name-tag",,"fabric","modrinth","True","apiresponse\craftable-name-tag-1.21.8-0.1.json",,,"","1.21.8-0.1","https://cdn.modrinth.com/data/mi57UBwo/versions/yMmelrrT/CraftableNameTag-1.21.8-0.1.jar","https://cdn.modrinth.com/data/mi57UBwo/versions/yMmelrrT/CraftableNameTag-1.21.8-0.1.jar","1.21.9-0.1","https://cdn.modrinth.com/data/mi57UBwo/versions/X9nJBDgB/CraftableNameTag-1.21.9-0.1.jar","1.21.9","https://cdn.modrinth.com/data/mi57UBwo/d087aad208bf88342f8bd516a70937e608f74b52.png","optional","required","Craftable Name Tag","Makes the Name Tag craftable","","","",,"1.21.8","required: P7dR8mSH","required: P7dR8mSH","","","",""
"Open Parties and Claims","open-parties-and-claims",,"fabric","modrinth","True","apiresponse\open-parties-and-claims-fabric-1.21.8-0.25.8.json",,,"","fabric-1.21.8-0.25.8","https://cdn.modrinth.com/data/gF3BGWvG/versions/oY049FGU/open-parties-and-claims-fabric-1.21.8-0.25.8.jar","https://cdn.modrinth.com/data/gF3BGWvG/versions/oY049FGU/open-parties-and-claims-fabric-1.21.8-0.25.8.jar","fabric-1.21.9-0.25.6","https://cdn.modrinth.com/data/gF3BGWvG/versions/lGYNdsWV/open-parties-and-claims-fabric-1.21.9-0.25.6.jar","1.21.9","https://cdn.modrinth.com/data/gF3BGWvG/410c5443b268912b11709e7d03dd9ec3fda38ea5.png","optional","required","Open Parties and Claims","Adds the ability to claim chunks and make player parties, integrates with Xaero's Minimap and World Map","https://github.com/thexaero/open-parties-and-claims/issues","https://github.com/thexaero/open-parties-and-claims","",,"1.21.8","required: ohNO6lps,P7dR8mSH","required: ohNO6lps,P7dR8mSH","","","",""
"Universal Graves","universal-graves",,"fabric","modrinth","True","apiresponse\universal-graves-3.8.1+1.21.6.json",,,"","3.8.1+1.21.6","https://cdn.modrinth.com/data/yn9u3ypm/versions/gdZmLCZD/graves-3.8.1%2B1.21.6.jar","https://cdn.modrinth.com/data/yn9u3ypm/versions/gdZmLCZD/graves-3.8.1%2B1.21.6.jar","3.9.0+1.21.9","https://cdn.modrinth.com/data/yn9u3ypm/versions/bJROTlRS/graves-3.9.0%2B1.21.9.jar","1.21.9","https://cdn.modrinth.com/data/yn9u3ypm/a933032aa191fdc43cd439074f5713f8351e7af9.png","unsupported","required","Universal Graves","Customisable grave mod for Fabric!","https://github.com/Patbox/UniversalGraves/issues","https://github.com/Patbox/UniversalGraves","",,"1.21.6","required: xGdtZczs","required: xGdtZczs","","","",""
"Styled Chat","styled-chat",,"fabric","modrinth","True","apiresponse\styled-chat-2.9.0+1.21.6.json",,,"","2.9.0+1.21.6","https://cdn.modrinth.com/data/doqSKB0e/versions/4iEiOcnO/styled-chat-2.9.0%2B1.21.6.jar","https://cdn.modrinth.com/data/doqSKB0e/versions/4iEiOcnO/styled-chat-2.9.0%2B1.21.6.jar","2.10.0+1.21.9","https://cdn.modrinth.com/data/doqSKB0e/versions/ub8BCtuy/styled-chat-2.10.0%2B1.21.9.jar","1.21.9","https://cdn.modrinth.com/data/doqSKB0e/bab343cc1b3e814755ace1a98c89e1ced8ae1a15.png","unsupported","required","Styled Chat","Style your server's chat as you want!","https://github.com/Patbox/StyledChat/issues","https://github.com/Patbox/StyledChat","https://github.com/Patbox/StyledChat",,"1.21.6","","","","","",""
"Styled Player List","styledplayerlist",,"fabric","modrinth","True","apiresponse\styledplayerlist-3.8.0+1.21.6.json",,,"","3.8.0+1.21.6","https://cdn.modrinth.com/data/DQIfKUHf/versions/roni2qRY/styledplayerlist-3.8.0%2B1.21.6.jar","https://cdn.modrinth.com/data/DQIfKUHf/versions/roni2qRY/styledplayerlist-3.8.0%2B1.21.6.jar","3.9.0+1.21.9","https://cdn.modrinth.com/data/DQIfKUHf/versions/2QAJ6cLM/styledplayerlist-3.9.0%2B1.21.9.jar","1.21.9","https://cdn.modrinth.com/data/DQIfKUHf/944f7d9c6d890a956699bc4932433629cd9b3730.png","unsupported","required","Styled Player List","This mod allows server owners to change player list look!","https://github.com/Patbox/StyledPlayerList/issues","https://github.com/Patbox/StyledPlayerList","",,"1.21.6","","","","","",""
"Pets Don't Die","pets-dont-die",,"fabric","modrinth","True","apiresponse\pets-dont-die-1.1.5+mod.json",,,"","1.1.5+mod","https://cdn.modrinth.com/data/5H9ypkdW/versions/uMOvPLUi/pets-dont-die-1.1.5.jar","https://cdn.modrinth.com/data/5H9ypkdW/versions/uMOvPLUi/pets-dont-die-1.1.5.jar","1.1.5+mod","https://cdn.modrinth.com/data/5H9ypkdW/versions/uMOvPLUi/pets-dont-die-1.1.5.jar","1.21.9","https://cdn.modrinth.com/data/5H9ypkdW/f9b9d00abb73c477455c8a8efd4b9a222cc19614_96.webp","optional","required","Pets Don't Die","This data pack makes pets (tameable mobs) unable to die*.","https://github.com/E8zEbo8Luna/PetsDontDie/issues","https://github.com/E8zEbo8Luna/PetsDontDie","",,"1.21.5","","","","","",""
"Sodium","sodium",,"fabric","modrinth","True","apiresponse\sodium-mc1.21.8-0.7.2-fabric.json",,,"","mc1.21.8-0.7.2-fabric","https://cdn.modrinth.com/data/AANobbMI/versions/pJRT8Zxt/sodium-fabric-0.7.2%2Bmc1.21.8.jar","https://cdn.modrinth.com/data/AANobbMI/versions/pJRT8Zxt/sodium-fabric-0.7.2%2Bmc1.21.8.jar","mc1.21.10-0.7.2-fabric","https://cdn.modrinth.com/data/AANobbMI/versions/VTidoe6U/sodium-fabric-0.7.2%2Bmc1.21.10.jar","1.21.9","https://cdn.modrinth.com/data/AANobbMI/295862f4724dc3f78df3447ad6072b2dcd3ef0c9_96.webp","required","unsupported","Sodium","The fastest and most compatible rendering optimization mod for Minecraft. Now available for both NeoForge and Fabric!","https://github.com/CaffeineMC/sodium/issues","https://github.com/CaffeineMC/sodium","https://github.com/CaffeineMC/sodium/wiki",,"1.21.6","","","","","",""
"FerriteCore","ferrite-core",,"fabric","modrinth","True","apiresponse\ferrite-core-8.0.0-fabric.json",,,"","8.0.0-fabric","https://cdn.modrinth.com/data/uXXizFIs/versions/CtMpt7Jr/ferritecore-8.0.0-fabric.jar","https://cdn.modrinth.com/data/uXXizFIs/versions/CtMpt7Jr/ferritecore-8.0.0-fabric.jar","8.0.2-fabric","https://cdn.modrinth.com/data/uXXizFIs/versions/MGoveONm/ferritecore-8.0.2-fabric.jar","1.21.9","https://cdn.modrinth.com/data/uXXizFIs/222a126f26f8f9ae1eb339f3b767677f18bff31f_96.webp","optional","optional","FerriteCore","Memory usage optimizations","https://github.com/malte0811/FerriteCore/issues","https://github.com/malte0811/FerriteCore","",,"1.21.5","","","","","",""
"BLAST","blast",,"fabric","modrinth","True","apiresponse\blast-1.13.3-1.21.7.json",,,"","1.13.3-1.21.7","https://cdn.modrinth.com/data/hrVBD9fd/versions/wbOnhig6/blast-1.13.3-1.21.7.jar","https://cdn.modrinth.com/data/hrVBD9fd/versions/wbOnhig6/blast-1.13.3-1.21.7.jar","1.13.4-1.21.9","https://cdn.modrinth.com/data/hrVBD9fd/versions/ig3cPveZ/blast-1.13.4-1.21.9.jar","1.21.9","https://cdn.modrinth.com/data/hrVBD9fd/a5c52019acfdf497b795c85b2e0510ce1f6b5601.png","required","required","BLAST","A mod about bombs.","https://github.com/Ladysnake/BLAST/issues","https://github.com/Ladysnake/BLAST","https://ladysnake.org/wiki/blast",,"1.21.7","required: 9Ya7Yyre,P7dR8mSH","required: 9Ya7Yyre,P7dR8mSH","","","",""
"InertiaAntiCheat","inertiaanticheat",,"fabric","modrinth","True","apiresponse\inertiaanticheat-1.1.0.4.json",,,"","1.1.0.4","https://cdn.modrinth.com/data/ljWczies/versions/GkBycEGZ/InertiaAntiCheat-1.1.0.4.jar","https://cdn.modrinth.com/data/ljWczies/versions/GkBycEGZ/InertiaAntiCheat-1.1.0.4.jar","1.1.0.4","https://cdn.modrinth.com/data/ljWczies/versions/GkBycEGZ/InertiaAntiCheat-1.1.0.4.jar","1.21.9","https://cdn.modrinth.com/data/ljWczies/e0d2e7e3e6ced69a341950801b5e5e4fbf09f6da.webp","required","required","Inertia Anti Cheat","Stop people from using unwanted mods on your server!","https://github.com/DiffuseHyperion/InertiaAntiCheat/issues","https://github.com/DiffuseHyperion/InertiaAntiCheat","https://github.com/DiffuseHyperion/InertiaAntiCheat/wiki",,"1.21.8","required: P7dR8mSH","required: P7dR8mSH","","","",""
"Iris","iris",,"fabric","modrinth","True","apiresponse\iris-1.9.6+1.21.8-fabric.json",,,"","1.9.6+1.21.8-fabric","https://cdn.modrinth.com/data/YL57xq9U/versions/Rhzf61g1/iris-fabric-1.9.6%2Bmc1.21.8.jar","https://cdn.modrinth.com/data/YL57xq9U/versions/Rhzf61g1/iris-fabric-1.9.6%2Bmc1.21.8.jar","1.9.6+1.21.10-fabric","https://cdn.modrinth.com/data/YL57xq9U/versions/r1MZ1Bpv/iris-fabric-1.9.6%2Bmc1.21.9.jar","1.21.9","https://cdn.modrinth.com/data/YL57xq9U/18d0e7f076d3d6ed5bedd472b853909aac5da202_96.webp","required","unsupported","Iris Shaders","A modern shader pack loader for Minecraft intended to be compatible with existing OptiFine shader packs","https://github.com/IrisShaders/Iris/issues","https://github.com/IrisShaders/Iris","",,"1.21.6","required: AANobbMI","required: AANobbMI","","","",""
"BetterF3","betterf3",,"fabric","modrinth","True","apiresponse\betterf3-15.0.0.json",,,"","15.0.0","https://cdn.modrinth.com/data/8shC1gFX/versions/DHCqyQtH/BetterF3-15.0.0-Fabric-1.21.6.jar","https://cdn.modrinth.com/data/8shC1gFX/versions/DHCqyQtH/BetterF3-15.0.0-Fabric-1.21.6.jar","15.0.0","https://cdn.modrinth.com/data/8shC1gFX/versions/DHCqyQtH/BetterF3-15.0.0-Fabric-1.21.6.jar","1.21.9","https://cdn.modrinth.com//data/8shC1gFX/icon.png","required","unsupported","BetterF3","BetterF3 is a mod that replaces Minecraft's original debug HUD with a highly customizable, more human-readable HUD.","https://github.com/TreyRuffy/BetterF3/issues/","https://github.com/TreyRuffy/BetterF3","",,"1.21.6","required: 9s6osm5g; optional: mOgUt4GM","required: 9s6osm5g; optional: mOgUt4GM","","","",""
"Egg Of Capitalism","egg-of-capitalism",,"fabric","modrinth","False","apiresponse\egg-of-capitalism-mc1.20.5-4.0.json","Version not compatible with 1.21.8 (supports: 1.20.5, 1.20.6)",,"",,,,"mc1.20.5-4.0","https://cdn.modrinth.com/data/llThBwQo/versions/S5qEeVFl/egg-of-capitalism-mc1.20.5-4.0.jar","1.21.9",,,,,,"","","",,,"","","","","",""
"Litematica","litematica",,"fabric","modrinth","True","apiresponse\litematica-0.23.4.json",,,"","0.23.4","https://cdn.modrinth.com/data/bEpr0Arc/versions/DF02w8iL/litematica-fabric-1.21.8-0.23.4.jar","https://cdn.modrinth.com/data/bEpr0Arc/versions/DF02w8iL/litematica-fabric-1.21.8-0.23.4.jar","0.24.3","https://cdn.modrinth.com/data/bEpr0Arc/versions/PVLPYmWh/litematica-fabric-1.21.10-0.24.3.jar","1.21.9","https://cdn.modrinth.com/data/bEpr0Arc/25b5529d7a3b030ac136a6ce879d8ed2a1aa4a8d.png","required","unsupported","Litematica","A client-side schematic mod with extra features for creative mode work","https://github.com/sakura-ryoko/litematica/issues/","https://github.com/maruohon/litematica/","https://github.com/maruohon/litematica/wiki",,"1.21.6","required: GcWjdA9I","required: GcWjdA9I","","","",""
"Amecs Reborn","amecs-reborn",,"fabric","modrinth","False","apiresponse\amecs-reborn-2.0.2+mc1.21.5.json","Version not compatible with 1.21.8 (supports: 1.21.5)",,"",,,,"2.0.2+mc1.21.5","https://cdn.modrinth.com/data/IjgEpZeq/versions/HnQJNS8B/Amecs-Reborn-2.0.2%2Bmc1.21.5.jar","1.21.9",,,,,,"","","",,,"","","","","",""
"AntiXray","anti-xray",,"fabric","modrinth","True","apiresponse\anti-xray-1.4.10+1.21.6.json",,,"","1.4.10+1.21.6","https://cdn.modrinth.com/data/sml2FMaA/versions/8oiUayeD/antixray-fabric-1.4.10%2B1.21.6.jar","https://cdn.modrinth.com/data/sml2FMaA/versions/8oiUayeD/antixray-fabric-1.4.10%2B1.21.6.jar","1.4.10+1.21.9","https://cdn.modrinth.com/data/sml2FMaA/versions/EHGIPeW9/antixray-fabric-1.4.10%2B1.21.9.jar","1.21.9","https://cdn.modrinth.com/data/sml2FMaA/icon.png","unsupported","required","AntiXray","A lightweight mod that allows server owners to combat xrayers.","https://github.com/DrexHD/FabricAntiXray/issues","https://github.com/DrexHD/FabricAntiXray","",,"1.21.6","","","","","",""
"Armored Elytra","elytra-armor",,"fabric","modrinth","True","apiresponse\elytra-armor-1.9.0.json",,,"","1.9.0","https://cdn.modrinth.com/data/AuFCCYMx/versions/lRaZ7rHr/armored-elytra-1.9.0.jar","https://cdn.modrinth.com/data/AuFCCYMx/versions/lRaZ7rHr/armored-elytra-1.9.0.jar","1.10.0","https://cdn.modrinth.com/data/AuFCCYMx/versions/zTiJPLyg/armored-elytra-1.10.0.jar","1.21.9","https://cdn.modrinth.com/data/AuFCCYMx/eb028d2db6143709804cd11d0ebe1f1adf52f1c1.png","optional","required","Armored Elytra","All in one elytra and chestplate combiner mod for fabric.","https://github.com/DorkixAzIgazi/armored-elytra/issues","https://github.com/DorkixAzIgazi/armored-elytra","https://github.com/DorkixAzIgazi/armored-elytra",,"1.21.8","required: P7dR8mSH","required: P7dR8mSH","","","",""
"C2ME","c2me-fabric",,"fabric","modrinth","True","apiresponse\c2me-fabric-0.3.5+alpha.0.8+1.21.8.json",,,"","0.3.5+alpha.0.8+1.21.8","https://cdn.modrinth.com/data/VSNURh3q/versions/7lwPGYpL/c2me-fabric-mc1.21.8-0.3.5%2Balpha.0.8.jar","https://cdn.modrinth.com/data/VSNURh3q/versions/7lwPGYpL/c2me-fabric-mc1.21.8-0.3.5%2Balpha.0.8.jar","0.3.5.1.0+1.21.10","https://cdn.modrinth.com/data/VSNURh3q/versions/uNick7oj/c2me-fabric-mc1.21.10-0.3.5.1.0.jar","1.21.9","https://cdn.modrinth.com/data/VSNURh3q/3c2ce471054466712a44c8758a03e03bb868f93b_96.webp","optional","required","Concurrent Chunk Management Engine (Fabric)","A Fabric mod designed to improve the chunk performance of Minecraft.","https://github.com/RelativityMC/C2ME-fabric/issues","https://github.com/RelativityMC/C2ME-fabric","",,"1.21.8","","","","","",""
"Clumps","clumps",,"fabric","modrinth","True","apiresponse\clumps-26.0.0.1.json",,,"","26.0.0.1","https://cdn.modrinth.com/data/Wnxd13zP/versions/GfTjiLfw/Clumps-fabric-1.21.8-26.0.0.1.jar","https://cdn.modrinth.com/data/Wnxd13zP/versions/GfTjiLfw/Clumps-fabric-1.21.8-26.0.0.1.jar","27.0.0.2","https://cdn.modrinth.com/data/Wnxd13zP/versions/8JZ1P6ln/Clumps-fabric-1.21.9-27.0.0.2.jar","1.21.9","https://cdn.modrinth.com/data/Wnxd13zP/6a965bb7974c3e759a53a1c89c35de4acd4cf86a_96.webp","optional","optional","Clumps","Clumps XP orbs together to reduce lag","https://github.com/jaredlll08/Clumps/issues","https://github.com/jaredlll08/Clumps","",,"1.21.8","required: P7dR8mSH","required: P7dR8mSH","","","",""
"Jade","jade",,"fabric","modrinth","True","apiresponse\jade-19.3.2+fabric.json",,,"","19.3.2+fabric","https://cdn.modrinth.com/data/nvQzSEkH/versions/o3aatc5Q/Jade-1.21.8-Fabric-19.3.2.jar","https://cdn.modrinth.com/data/nvQzSEkH/versions/o3aatc5Q/Jade-1.21.8-Fabric-19.3.2.jar","20.1.0+fabric","https://cdn.modrinth.com/data/nvQzSEkH/versions/nCbsPtPw/Jade-1.21.9-Fabric-20.1.0.jar","1.21.9","https://cdn.modrinth.com/data/nvQzSEkH/b04217bc2b7dc524c4d12f81ff42cc1cefb9b0fc_96.webp","optional","optional","Jade ðŸ”","Shows information about what you are looking at. (Hwyla/Waila fork for Minecraft 1.16+)","https://github.com/Snownee/Jade/issues?q=is%3Aissue","https://github.com/Snownee/Jade","",,"1.21.6","optional: u6dRKJwZ","optional: u6dRKJwZ","","","",""
"LambDynamicLights","lambdynamiclights",,"fabric","modrinth","True","apiresponse\lambdynamiclights-4.8.6+1.21.8.json",,,"","4.8.6+1.21.8","https://cdn.modrinth.com/data/yBW8D80W/versions/foMsxsVt/lambdynamiclights-4.8.6%2B1.21.8.jar","https://cdn.modrinth.com/data/yBW8D80W/versions/foMsxsVt/lambdynamiclights-4.8.6%2B1.21.8.jar","4.8.6+1.21.10","https://cdn.modrinth.com/data/yBW8D80W/versions/BRdrLWGs/lambdynamiclights-4.8.6%2B1.21.10.jar","1.21.9","https://cdn.modrinth.com/data/yBW8D80W/d4f5c3ff8df7caf024178b04eca6d69f95979cfe_96.webp","required","unsupported","LambDynamicLights - Dynamic Lights","Adds dynamic lights to Minecraft as the most feature-complete and optimized dynamic lighting mod.","https://github.com/LambdAurora/LambDynamicLights/issues","https://github.com/LambdAurora/LambDynamicLights","https://lambdaurora.dev/projects/lambdynamiclights/docs/v4",,"1.21.6","required: P7dR8mSH,PxQSWIcD,reCfnRvJ","required: P7dR8mSH,PxQSWIcD,reCfnRvJ","","","",""
"Ledger","ledger",,"fabric","modrinth","True","apiresponse\ledger-1.3.13-fixtimestamp.json",,,"","1.3.13-fixtimestamp","https://cdn.modrinth.com/data/LVN9ygNV/versions/52ev59ef/ledger-1.3.13-fix.jar","https://cdn.modrinth.com/data/LVN9ygNV/versions/52ev59ef/ledger-1.3.13-fix.jar","1.3.16","https://cdn.modrinth.com/data/LVN9ygNV/versions/O4Rna8OX/ledger-1.3.16.jar","1.21.9","https://cdn.modrinth.com/data/LVN9ygNV/919c0c39af397c4e62b6980018e31e9f763bf6d5_96.webp","unsupported","required","Ledger","A serverside logging mod","https://github.com/QuiltServerTools/Ledger","https://github.com/QuiltServerTools/Ledger","https://quiltservertools.github.io/Ledger/latest/",,"1.21.6","required: Ha28R6CL,MLYQ9VGP,P7dR8mSH","required: Ha28R6CL,MLYQ9VGP,P7dR8mSH","","","",""
"Lithium","lithium",,"fabric","modrinth","True","apiresponse\lithium-mc1.21.8-0.18.1-fabric.json",,,"","mc1.21.8-0.18.1-fabric","https://cdn.modrinth.com/data/gvQqBUqZ/versions/qxIL7Kb8/lithium-fabric-0.18.1%2Bmc1.21.8.jar","https://cdn.modrinth.com/data/gvQqBUqZ/versions/qxIL7Kb8/lithium-fabric-0.18.1%2Bmc1.21.8.jar","mc1.21.9-0.19.2-fabric","https://cdn.modrinth.com/data/gvQqBUqZ/versions/L1sSIxFm/lithium-fabric-0.19.2%2Bmc1.21.9.jar","1.21.9","https://cdn.modrinth.com/data/gvQqBUqZ/bcc8686c13af0143adf4285d741256af824f70b7_96.webp","optional","optional","Lithium","No-compromises game logic optimization mod. Well suited for clients and servers of all kinds. Now available for Fabric and NeoForge!","https://github.com/caffeinemc/lithium-fabric/issues","https://github.com/caffeinemc/lithium-fabric","",,"1.21.8","","","","","",""
"LuckPerms","luckperms",,"fabric","modrinth","True","apiresponse\luckperms-v5.5.10-fabric.json",,,"","v5.5.10-fabric","https://cdn.modrinth.com/data/Vebnzrzj/versions/uStOaYyZ/LuckPerms-Fabric-5.5.10.jar","https://cdn.modrinth.com/data/Vebnzrzj/versions/uStOaYyZ/LuckPerms-Fabric-5.5.10.jar","v5.5.17-fabric","https://cdn.modrinth.com/data/Vebnzrzj/versions/rGOrpVtr/LuckPerms-Fabric-5.5.17.jar","1.21.9","https://cdn.modrinth.com/data/Vebnzrzj/90943902cc650e95b167265b8f2d7c893f82c8f4_96.webp","unsupported","required","LuckPerms","A permissions plugin/mod for Minecraft servers.","https://github.com/lucko/LuckPerms/issues","https://github.com/lucko/LuckPerms","https://luckperms.net/wiki",,"1.21.6","","","","","",""
"SimpleDiscordLink","sdlink",,"fabric","modrinth","True","apiresponse\sdlink-3.3.3.json",,,"","3.3.3","https://cdn.modrinth.com/data/Sh0YauEf/versions/R49qbfnG/SimpleDiscordLink-Universal-3.3.3.jar","https://cdn.modrinth.com/data/Sh0YauEf/versions/R49qbfnG/SimpleDiscordLink-Universal-3.3.3.jar","3.3.3","https://cdn.modrinth.com/data/Sh0YauEf/versions/R49qbfnG/SimpleDiscordLink-Universal-3.3.3.jar","1.21.9","https://cdn.modrinth.com/data/Sh0YauEf/87fd052adda726a019a13a7ad8b02f070452a5c6_96.webp","unsupported","required","Simple Discord Link","A simple Minecraft -> Discord Chat Link bot with Whitelisting","https://github.com/hypherionmc/sdlink/issues","https://github.com/hypherionmc/sdlink","https://sdlink.fdd-docs.com/",,"1.18.2","required: Nn8Wasaq","required: Nn8Wasaq","","","",""
"Syncmatica","syncmatica",,"fabric","modrinth","True","apiresponse\syncmatica-1.21.8-0.3.15.json",,,"","1.21.8-0.3.15","https://cdn.modrinth.com/data/bfneejKo/versions/x2GEse4M/syncmatica-fabric-1.21.8-0.3.15.jar","https://cdn.modrinth.com/data/bfneejKo/versions/x2GEse4M/syncmatica-fabric-1.21.8-0.3.15.jar","0.3.15","https://cdn.modrinth.com/data/bfneejKo/versions/bLFCUKrV/syncmatica-fabric-1.21.10-rc1-0.3.15.jar","1.21.9","https://cdn.modrinth.com/data/bfneejKo/0792df2997b30cfa6d3e9e510d38b5c7f6ada442_96.webp","required","required","Syncmatica","Syncmatica is a mod which aims to mod into litematica so that schematics and their placements can be easily shared.","https://github.com/End-Tech/syncmatica/issues","https://github.com/End-Tech/syncmatica","",,"1.21.6","optional: bEpr0Arc,GcWjdA9I","optional: bEpr0Arc,GcWjdA9I","","","",""
"No Chat Reports","no-chat-reports",,"fabric","modrinth","True","apiresponse\no-chat-reports-Fabric-1.21.8-v2.15.0.json",,,"","Fabric-1.21.8-v2.15.0","https://cdn.modrinth.com/data/qQyHxfxd/versions/pmpg6ocz/NoChatReports-FABRIC-1.21.8-v2.15.0.jar","https://cdn.modrinth.com/data/qQyHxfxd/versions/pmpg6ocz/NoChatReports-FABRIC-1.21.8-v2.15.0.jar","Fabric-1.21.10-v2.16.0","https://cdn.modrinth.com/data/qQyHxfxd/versions/78RjC1gi/NoChatReports-FABRIC-1.21.10-v2.16.0.jar","1.21.9","https://cdn.modrinth.com/data/qQyHxfxd/icon.png","optional","optional","No Chat Reports","Makes chat unreportable (where possible)","https://github.com/Aizistral-Studios/No-Chat-Reports/issues","https://github.com/Aizistral-Studios/No-Chat-Reports","https://github.com/Aizistral-Studios/No-Chat-Reports/wiki",,"1.21.6","required: P7dR8mSH; optional: 9s6osm5g,mOgUt4GM","required: P7dR8mSH; optional: 9s6osm5g,mOgUt4GM","","","",""
"Complementary Reimagined","complementary-reimagined",,"iris","modrinth","True","apiresponse\complementary-reimagined-r5.5.1.json",,,"","r5.5.1","https://cdn.modrinth.com/data/HVnmMxH1/versions/sAAjYvFB/ComplementaryReimagined_r5.5.1.zip","https://cdn.modrinth.com/data/HVnmMxH1/versions/sAAjYvFB/ComplementaryReimagined_r5.5.1.zip","","","","https://cdn.modrinth.com/data/HVnmMxH1/79cb7c8123bbc54945305b2ebad6b8881efdf5f8_96.webp","required","unsupported","Complementary Shaders - Reimagined","Preserving the elements of Minecraft with exceptional quality, detail, and performance.","","https://github.com/ComplementaryDevelopment/ComplementaryReimagined","",,"1.8.9","","","","","",""
"AstraLex Shaders","astralex",,"iris","modrinth","False","apiresponse\astralex-93.0.json","Version not compatible with 1.21.8 (supports: 1.16.5, 1.21.9)",,"",,,,"","","",,,,,,"","","",,,"","","","","",""
"BSL Shaders","bsl-shaders",,"iris","modrinth","True","apiresponse\bsl-shaders-10.0.json",,,"","10.0","https://cdn.modrinth.com/data/Q1vvjJYV/versions/jRn8y2VF/BSL_v10.0.zip","https://cdn.modrinth.com/data/Q1vvjJYV/versions/jRn8y2VF/BSL_v10.0.zip","","","","https://cdn.modrinth.com/data/Q1vvjJYV/2a611a3cb434fb52fb81fa5dace13c5d8b67e55d_96.webp","required","unsupported","BSL Shaders","Shaderpack for Minecraft: Java Edition. It's bright, colorful, and distinct.","","","",,"1.8.9","","","","","",""
"Complementary Shaders - Unbound","complementary-unbound",,"iris","modrinth","True","apiresponse\complementary-unbound-r5.5.1.json",,,"","r5.5.1","https://cdn.modrinth.com/data/R6NEzAwj/versions/1ng9gVp7/ComplementaryUnbound_r5.5.1.zip","https://cdn.modrinth.com/data/R6NEzAwj/versions/1ng9gVp7/ComplementaryUnbound_r5.5.1.zip","","","","https://cdn.modrinth.com/data/R6NEzAwj/c85ce4049aac76360d2cd24fd9a7003de01ef312_96.webp","required","unsupported","Complementary Shaders - Unbound","Transforming the visuals of Minecraft with exceptional quality, detail, and performance.","","https://github.com/ComplementaryDevelopment/ComplementaryReimagined","",,"1.8.9","","","","","",""
"Bale of Sugar Cane","bale-of-sugar-cane",,"fabric","modrinth","False","apiresponse\bale-of-sugar-cane-1.0.0.json","Version not compatible with 1.21.8 (supports: 1.21.10, 1.21.5, 1.21, 1.21.1, 1.21.2, 1.21.3, 1.21)",,"",,,,"1.0.0","https://cdn.modrinth.com/data/NLiB957M/versions/PHCllJKu/baleofsugarcane-v1.0.0-fabric-1.21.5.jar","1.21.9",,,,,,"","","",,,"","","","","",""
"Better Gold Recycling","better-gold-recycling",,"fabric","modrinth","True","apiresponse\better-gold-recycling-2.4.1+mod.json",,,"","2.4.1+mod","https://cdn.modrinth.com/data/1IZygUPY/versions/gJFjYnts/better-gold-recycling-2.4.1.jar","https://cdn.modrinth.com/data/1IZygUPY/versions/gJFjYnts/better-gold-recycling-2.4.1.jar","","","","https://cdn.modrinth.com/data/1IZygUPY/bb3b149d385785bee5aaa1af8d809933f1d5ca1a_96.webp","optional","required","Better Gold Recycling","Smelt larger gold items for ingots and smaller items for nuggets","https://www.planetminecraft.com/data-pack/better-gold-recycling-1-20/","https://github.com/not-blue/better-gold-recycling","",,"1.21","","","","","",""
"Reinforced Chests","reinforced-chests",,"fabric","modrinth","True","apiresponse\reinforced-chests-3.3.3+1.21.8.json",,,"","3.3.3+1.21.8","https://cdn.modrinth.com/data/FWtAXlpg/versions/i89BsPkK/reinforced-chests-3.3.3%2B1.21.8.jar","https://cdn.modrinth.com/data/FWtAXlpg/versions/i89BsPkK/reinforced-chests-3.3.3%2B1.21.8.jar","3.3.3+1.21.8","https://cdn.modrinth.com/data/FWtAXlpg/versions/i89BsPkK/reinforced-chests-3.3.3%2B1.21.8.jar","1.21.9","https://cdn.modrinth.com/data/FWtAXlpg/37bdc239a59b54722d43f6c3078045b12b91aa4b_96.webp","required","required","Reinforced Chests","Adds reinforced chests.","https://github.com/Aton-Kish/reinforced-chests/issues","https://github.com/Aton-Kish/reinforced-chests","",,"1.21.6","required: 9s6osm5g,P7dR8mSH; optional: mOgUt4GM","required: 9s6osm5g,P7dR8mSH; optional: mOgUt4GM","","","",""
"Better Copper Recycling","copper-recycling",,"fabric","modrinth","True","apiresponse\copper-recycling-2.4.1+mod.json",,,"","2.4.1+mod","https://cdn.modrinth.com/data/fuupShGh/versions/6MnADGIG/copper-recycling-2.4.1.jar","https://cdn.modrinth.com/data/fuupShGh/versions/6MnADGIG/copper-recycling-2.4.1.jar","","","","https://cdn.modrinth.com/data/fuupShGh/26f5119cbb8de07d15469ebea2578a258676b22a_96.webp","optional","required","Better Copper Recycling","Recycle copper items and blocks (plus their variants) into copper nuggets and ingots","https://github.com/not-blue/copper-recycling/issues","https://github.com/not-blue/copper-recycling","",,"1.21","","","","","",""
"Custom Portals","custom-portals",,"fabric","modrinth","True","apiresponse\custom-portals-3.9.1.json",,,"","3.9.1","https://cdn.modrinth.com/data/38pHU3u5/versions/phijRcw9/custom-portals-3.9.1%2B1.21.7.jar","https://cdn.modrinth.com/data/38pHU3u5/versions/phijRcw9/custom-portals-3.9.1%2B1.21.7.jar","3.9.1","https://cdn.modrinth.com/data/38pHU3u5/versions/phijRcw9/custom-portals-3.9.1%2B1.21.7.jar","1.21.9","https://cdn.modrinth.com/data/38pHU3u5/9e4ea581b393acb6718c632338dbd7d34b9eefc4.png","required","required","Custom Portals","Custom Portals is a mod for Minecraft that allows you to construct inter- and intradimensional portals out of any block.","https://github.com/Palyon-dev/CustomPortals/issues","https://github.com/Palyon-dev/CustomPortals","",,"1.21.6","required: 1eAoo2KR,K01OU20C,P7dR8mSH; optional: mOgUt4GM","required: 1eAoo2KR,K01OU20C,P7dR8mSH; optional: mOgUt4GM","","","",""
"Diamond Recycling","diamond-recycling",,"fabric","modrinth","True","apiresponse\diamond-recycling-1.3.2+mod.json",,,"","1.3.2+mod","https://cdn.modrinth.com/data/jw67t8zN/versions/RV5I4bbp/diamond-recycling-1.3.2.jar","https://cdn.modrinth.com/data/jw67t8zN/versions/RV5I4bbp/diamond-recycling-1.3.2.jar","","","","https://cdn.modrinth.com/data/jw67t8zN/d00ddacf5464d72a976c937e0390775636e80351_96.webp","optional","required","Diamond Recycling","Recycle diamond tools, diamond armor, and smithing templates into diamonds through crafting.","https://github.com/not-blue/diamond-recycling/issues","https://github.com/not-blue/diamond-recycling","",,"1.21","","","","","",""
"FabricProxy-Lite","fabricproxy-lite",,"fabric","modrinth","True","apiresponse\fabricproxy-lite-v2.10.1.json",,,"","v2.10.1","https://cdn.modrinth.com/data/8dI2tmqs/versions/KqB3UA0q/FabricProxy-Lite-2.10.1.jar","https://cdn.modrinth.com/data/8dI2tmqs/versions/KqB3UA0q/FabricProxy-Lite-2.10.1.jar","v2.10.1","https://cdn.modrinth.com/data/8dI2tmqs/versions/KqB3UA0q/FabricProxy-Lite-2.10.1.jar","1.21.9","https://cdn.modrinth.com/data/8dI2tmqs/a2ad5fcbee9693cf44807248d82e6fc6c6fca4fb_96.webp","unsupported","required","FabricProxy-Lite","Fabric mod for support forward player data from velocity","https://github.com/OKTW-Network/FabricProxy-Lite/issues","https://github.com/OKTW-Network/FabricProxy-Lite","",,"1.21","required: P7dR8mSH","required: P7dR8mSH","","","",""
"Furnace Recycle","furnace-recycle",,"fabric","modrinth","True","apiresponse\furnace-recycle-1.21.8-2.6-fabric+forge+neo.json",,,"","1.21.8-2.6-fabric+forge+neo","https://cdn.modrinth.com/data/HyKmtI3L/versions/QXVNpaWM/furnacerecycle-1.21.8-2.6.jar","https://cdn.modrinth.com/data/HyKmtI3L/versions/QXVNpaWM/furnacerecycle-1.21.8-2.6.jar","1.21.8-2.6-fabric+forge+neo","https://cdn.modrinth.com/data/HyKmtI3L/versions/QXVNpaWM/furnacerecycle-1.21.8-2.6.jar","1.21.9","https://cdn.modrinth.com/data/HyKmtI3L/a30124c0ece399b86c8f7dac935499357d355373_96.webp","unsupported","required","Furnace Recycle","ðŸ”¨ All metal-containing items are recyclable in a furnace and return raw materials.","https://github.com/Serilum/.issue-tracker/labels/Mod: Furnace Recycle","https://github.com/Serilum/Furnace-Recycle","",,"1.21.8","required: e0M1UDsY","required: e0M1UDsY","","","",""
"Netherite Recycling","netherite-recycling",,"fabric","modrinth","False","apiresponse\netherite-recycling-1.4+mod.json","Version not compatible with 1.21.8 (supports: 1.21, 1.21.1, 1.21.2, 1.21.3, 1.21.4, 1.21.5, 1.21.6)",,"",,,,"","","",,,,,,"","","",,,"","","","","",""
"Recycle Blast","recycle-blast",,"fabric","modrinth","True","apiresponse\recycle-blast-1.61.0+mod.json",,,"","1.61.0+mod","https://cdn.modrinth.com/data/nasjrNgl/versions/7RoBS6kB/recycle-blast-1.61.0.jar","https://cdn.modrinth.com/data/nasjrNgl/versions/7RoBS6kB/recycle-blast-1.61.0.jar","","","","https://cdn.modrinth.com/data/nasjrNgl/fe07d1c6f0650dc021e2e9a60721ff98ad939f10.png","optional","required","Recycle Blast","Recycle armors, tools, weapons, and other metal objects with the blast furnace","https://github.com/MeeniMc/RecycleBlast/issues","https://github.com/MeeniMc/RecycleBlast","",,"1.21.2","","","","","",""
"Servux","servux",,"fabric","modrinth","True","apiresponse\servux-0.7.3B.json",,,"","0.7.3B","https://cdn.modrinth.com/data/zQhsx8KF/versions/zvqUUU4K/servux-fabric-1.21.8-0.7.3.jar","https://cdn.modrinth.com/data/zQhsx8KF/versions/zvqUUU4K/servux-fabric-1.21.8-0.7.3.jar","0.8.2","https://cdn.modrinth.com/data/zQhsx8KF/versions/h2I1C6MN/servux-fabric-1.21.10-0.8.2.jar","1.21.9","https://cdn.modrinth.com/data/zQhsx8KF/57cebce8838ddc7b27b46eb98abd7f2fb0b87105_96.webp","unsupported","required","Servux","Servux is a server-side mod that provides support for some client-side mods, such as sending structure bounding boxes for MiniHUD","https://github.com/maruohon/servux/issues/","https://github.com/maruohon/servux/","",,"1.21.6","","","","","",""
"spark","spark",,"fabric","modrinth","True","apiresponse\spark-1.10.142-fabric.json",,,"","1.10.142-fabric","https://cdn.modrinth.com/data/l6YH9Als/versions/3KCl7Vx0/spark-1.10.142-fabric.jar","https://cdn.modrinth.com/data/l6YH9Als/versions/3KCl7Vx0/spark-1.10.142-fabric.jar","1.10.152-fabric","https://cdn.modrinth.com/data/l6YH9Als/versions/eqIoLvsF/spark-1.10.152-fabric.jar","1.21.9","https://cdn.modrinth.com/data/l6YH9Als/61a777dd08a8447ac93e8b6372e6d27d48cd1e1a_96.webp","optional","optional","spark","spark is a performance profiler for Minecraft clients, servers and proxies.","https://github.com/lucko/spark/issues","https://github.com/lucko/spark","https://spark.lucko.me/docs",,"1.21.6","","","","","",""
"Simple Voice Chat","simple-voice-chat",,"fabric","modrinth","True","apiresponse\simple-voice-chat-fabric-1.21.8-2.6.6.json",,,"","fabric-1.21.8-2.6.6","https://cdn.modrinth.com/data/9eGKb6K1/versions/2Z1g1v36/voicechat-fabric-1.21.8-2.6.6.jar","https://cdn.modrinth.com/data/9eGKb6K1/versions/2Z1g1v36/voicechat-fabric-1.21.8-2.6.6.jar","fabric-1.21.8-2.6.6","https://cdn.modrinth.com/data/9eGKb6K1/versions/2Z1g1v36/voicechat-fabric-1.21.8-2.6.6.jar","1.21.9","https://cdn.modrinth.com/data/9eGKb6K1/icon.png","optional","optional","Simple Voice Chat","A working voice chat in Minecraft!","https://github.com/henkelmax/simple-voice-chat/issues","https://github.com/henkelmax/simple-voice-chat","https://modrepo.de/minecraft/voicechat/wiki",,"1.21.8","optional: 9s6osm5g,mOgUt4GM,qyVF9oeo,SRlzjEBS,UL4bJFDY,Vebnzrzj,YlKdE5VK","optional: 9s6osm5g,mOgUt4GM,qyVF9oeo,SRlzjEBS,UL4bJFDY,Vebnzrzj,YlKdE5VK","","","",""
"Exline's Wool to String","exlines-wool-to-string",,"fabric","modrinth","True","apiresponse\exlines-wool-to-string-1.0.0.json",,,"","1.0.0","https://cdn.modrinth.com/data/m7fbbMbo/versions/s7Xr5XGm/wooltostring-v1.0.0-fabric-1.21.8.jar","https://cdn.modrinth.com/data/m7fbbMbo/versions/s7Xr5XGm/wooltostring-v1.0.0-fabric-1.21.8.jar","1.0.0","https://cdn.modrinth.com/data/m7fbbMbo/versions/M8iPdHrI/wooltostring-v1.0.0-fabric-1.21.5.jar","1.21.9","https://cdn.modrinth.com/data/m7fbbMbo/1cba0f99f2557a41f40b6764abe6e4c581c59965_96.webp","required","required","Exline's Wool to String","This mod allows you to craft string from any color of wool. Carpets can also be recycled for a little string now. For use on servers, this must be installed on both server and all clients.","","","",,"1.21.8","","","","","",""
"YetAnotherConfigLib (YACL)","yacl",,"fabric","modrinth","True","apiresponse\yacl-3.7.1+1.21.6-fabric.json",,,"","3.7.1+1.21.6-fabric","https://cdn.modrinth.com/data/1eAoo2KR/versions/WxYlHLu6/yet_another_config_lib_v3-3.7.1%2B1.21.6-fabric.jar","https://cdn.modrinth.com/data/1eAoo2KR/versions/WxYlHLu6/yet_another_config_lib_v3-3.7.1%2B1.21.6-fabric.jar","3.8.0+1.21.9-fabric","https://cdn.modrinth.com/data/1eAoo2KR/versions/UZmV6xf4/yet_another_config_lib_v3-3.8.0%2B1.21.9-fabric.jar","1.21.9","https://cdn.modrinth.com/data/1eAoo2KR/08c0cd32515e260f4bb20bbc0696510041523f9a_96.webp","optional","optional","YetAnotherConfigLib (YACL)","A builder-based configuration library for Minecraft.","https://github.com/isXander/YetAnotherConfigLib/issues","https://github.com/isXander/YetAnotherConfigLib","https://docs.isxander.dev/yet-another-config-lib",,"1.21.6","required: P7dR8mSH","required: P7dR8mSH","","","",""
"MiniHUD","minihud",,"fabric","modrinth","True","apiresponse\minihud-0.36.4.json",,,"","0.36.4","https://cdn.modrinth.com/data/UMxybHE8/versions/oqbL8Dfi/minihud-fabric-1.21.8-0.36.4.jar","https://cdn.modrinth.com/data/UMxybHE8/versions/oqbL8Dfi/minihud-fabric-1.21.8-0.36.4.jar","0.37.2","https://cdn.modrinth.com/data/UMxybHE8/versions/8HgcVDvl/minihud-fabric-1.21.10-0.37.2.jar","1.21.9","https://cdn.modrinth.com/data/UMxybHE8/4adf057a251f694983af139a06839e33bcd7a419.png","required","unsupported","MiniHUD","A ""mini F3"" HUD mod, also with various overlays like light level, spawn chunks, slime chunks etc.","https://github.com/sakura-ryoko/minihud/issues/","https://github.com/maruohon/minihud/","",,"1.21.6","required: GcWjdA9I","required: GcWjdA9I","","","",""
"MasterCutter","mastercutter",,"fabric","modrinth","True","apiresponse\mastercutter-1.5.2-mc1.21.6+mod.json",,,"","1.5.2-mc1.21.6+mod","https://cdn.modrinth.com/data/DuUMFIfX/versions/aBJPWDfY/mastercutter-1.5.2-mc1.21.6.jar","https://cdn.modrinth.com/data/DuUMFIfX/versions/aBJPWDfY/mastercutter-1.5.2-mc1.21.6.jar","","","","https://cdn.modrinth.com/data/DuUMFIfX/d8a4745d2baf7525dcea2c00dccdd557f3b26e70_96.webp","optional","required","MasterCutter","The stonecutter is now more useful than ever with over 500 new recipes including woodcutting, enhanced base stonecutting, recycling and ""un-crafting"".","","","",,"1.21.6","","","","","",""
"Sandstone Recycling","sandstone-recycling",,"fabric","modrinth","False","apiresponse\sandstone-recycling-1.3+mod.json","Version not compatible with 1.21.8 (supports: 1.20, 1.20.1, 1.20.2, 1.20.3, 1.20.4, 1.20.5, 1.20.6, 1.21, 1.21.1, 1.21.2, 1.21.3, 1.21.4, 1.21.5)",,"",,,,"","","",,,,,,"","","",,,"","","","","",""
"Stonecutter Salvage","stonecutter-salvage",,"fabric","modrinth","True","apiresponse\stonecutter-salvage-current.json",,,"","1.7.4+mod","https://cdn.modrinth.com/data/w4oj6UFD/versions/aJa7BPHg/stonecutter-salvage-1.7.4.jar","https://cdn.modrinth.com/data/w4oj6UFD/versions/aJa7BPHg/stonecutter-salvage-1.7.4.jar","","","","https://cdn.modrinth.com/data/w4oj6UFD/ca33fc4ad06ab41a4442bbfc6cbc4ef91e0cad56.png","optional","required","Stonecutter Salvage","Salvage items in the Stonecutter","https://github.com/GenMode/Minecraft/issues","","https://github.com/GenMode/Minecraft/wiki/Stonecutter-Salvage",,"1.21.8","required: P7dR8mSH","required: P7dR8mSH","","","",""
"Basic Storage","1054506",,"fabric","curseforge","True",,,,"","Fabric â†’ 1.1.2+1.21.8","https://edge.forgecdn.net/files/6813/317/basicstorage-1.1.2%2b1.21.8.jar","https://edge.forgecdn.net/files/6813/317/basicstorage-1.1.2%2b1.21.8.jar","Fabric â†’ 1.1.2+1.21.8","https://edge.forgecdn.net/files/6813/317/basicstorage-1.1.2%2b1.21.8.jar","1.21.9","https://media.forgecdn.net/avatars/1133/7/638692985993878584.png",,,"Basic Storage","Vanilla-friendly mass item storage","https://github.com/Khazoda/basic-storage/issues","https://github.com/Khazoda/basic-storage","https://modded.wiki/w/Mod:Basic_Storage",,"1.21.8","","","","","",""
